{"type": "FeatureCollection", "features": [{"type": "Feature", "properties": {"name": "LoDo Children's Playground", "leisure": "park"}, "geometry": {"type": "Polygon", "coordinates": [[[-105.0043562, 39.7501828], [-105.0043428, 39.750206], [-105.0043274, 39.7502225], [-105.0043012, 39.7502452], [-105.004267, 39.7502653], [-105.0042395, 39.7502751], [-105.0042167, 39.7502802], [-105.0041919, 39.7502833], [-105.0041691, 39.7502854], [-105.0041443, 39.7502838], [-105.0041168, 39.7502802], [-105.0040967, 39.750274], [-105.0040793, 39.7502658], [-105.0040457, 39.7502447], [-105.0040451, 39.7502323], [-105.0040518, 39.7502282], [-105.0040605, 39.7502282], [-105.0040759, 39.7502225], [-105.0041014, 39.7502374], [-105.0041262, 39.7502477], [-105.0041524, 39.7502534], [-105.0041892, 39.7502508], [-105.0042234, 39.7502374], [-105.0042348, 39.7502343], [-105.0042576, 39.7502096], [-105.0042489, 39.7502003], [-105.0042529, 39.7501781], [-105.0042503, 39.7501477], [-105.0042369, 39.7501214], [-105.0042147, 39.7500967], [-105.0041805, 39.7500756], [-105.0041664, 39.7500709], [-105.0041638, 39.7500544], [-105.0041537, 39.7500353], [-105.0041423, 39.7500219], [-105.0041255, 39.7500085], [-105.0041027, 39.7500003], [-105.0040719, 39.7499941], [-105.0040665, 39.7499843], [-105.0040578, 39.7499704], [-105.0040404, 39.7499575], [-105.0040089, 39.7499436], [-105.003978, 39.7499327], [-105.0039499, 39.7499245], [-105.0039197, 39.7499193], [-105.0038962, 39.7499183], [-105.0038714, 39.7499229], [-105.0038406, 39.7499307], [-105.0038238, 39.7499451], [-105.0038131, 39.7499616], [-105.003805, 39.7499905], [-105.0038184, 39.7500224], [-105.0038379, 39.7500426], [-105.0038727, 39.7500627], [-105.0038908, 39.7500699], [-105.0038935, 39.7500776], [-105.0038902, 39.7500853], [-105.0038835, 39.750091], [-105.003868, 39.7500936], [-105.0038453, 39.750091], [-105.0037715, 39.7500359], [-105.0037467, 39.7500163], [-105.0037299, 39.7500008], [-105.0037199, 39.7499889], [-105.0037085, 39.7499678], [-105.0037058, 39.7499472], [-105.0037085, 39.7499327], [-105.0037172, 39.7499209], [-105.0037313, 39.7499126], [-105.0037648, 39.7498956], [-105.0037983, 39.7498802], [-105.0038298, 39.7498668], [-105.0038526, 39.749859], [-105.0038835, 39.7498518], [-105.003911, 39.7498477], [-105.0039391, 39.7498446], [-105.0039747, 39.7498446], [-105.0040055, 39.7498472], [-105.004033, 39.7498503], [-105.0040592, 39.749858], [-105.0040833, 39.7498678], [-105.0041081, 39.7498817], [-105.0043435, 39.750058], [-105.0043569, 39.7500843], [-105.0043622, 39.7501055], [-105.0043609, 39.7501173], [-105.0043669, 39.750123], [-105.0043629, 39.750156], [-105.0043562, 39.7501828]]]}}, {"type": "Feature", "properties": {"name": "Lincoln Park", "leisure": "park"}, "geometry": {"type": "Polygon", "coordinates": [[[-105.0051596, 39.7338121], [-105.0033525, 39.7338065], [-105.0030058, 39.7338049], [-105.0029964, 39.7367081], [-105.0029984, 39.7367633], [-105.0030259, 39.7367792], [-105.0030554, 39.7367875], [-105.0030742, 39.7367901], [-105.0031285, 39.7367942], [-105.0051663, 39.7368014], [-105.0051489, 39.7367406], [-105.0051616, 39.7340411], [-105.0051697, 39.7339622], [-105.0051616, 39.7339246], [-105.0051596, 39.7338121]]]}}, {"type": "Feature", "properties": {"name": "Commons Park", "leisure": "park"}, "geometry": {"type": "Polygon", "coordinates": [[[-105.0075185, 39.755263], [-105.0074351, 39.7552008], [-105.0067949, 39.7547234], [-105.0066525, 39.7546164], [-105.0065142, 39.7546942], [-105.0064314, 39.7547456], [-105.0062648, 39.7548273], [-105.0061142, 39.7548859], [-105.0059376, 39.7549507], [-105.0057782, 39.7550062], [-105.005591, 39.7550747], [-105.0052937, 39.7551837], [-105.0052996, 39.7552003], [-105.0053078, 39.7552141], [-105.0053208, 39.7552291], [-105.0053475, 39.7552487], [-105.0053118, 39.7552753], [-105.0052774, 39.7553045], [-105.0052433, 39.7553417], [-105.0052092, 39.7553857], [-105.0051885, 39.7554263], [-105.0051628, 39.7554826], [-105.0051588, 39.7554945], [-105.0049559, 39.7553404], [-105.0049339, 39.7553498], [-105.0047672, 39.7554894], [-105.0046224, 39.755675], [-105.0045379, 39.7558493], [-105.0044816, 39.7560503], [-105.0045272, 39.7561338], [-105.0045406, 39.7562369], [-105.0045004, 39.7563307], [-105.0045258, 39.7566534], [-105.0045835, 39.7570514], [-105.0045902, 39.757303], [-105.0045594, 39.7575483], [-105.0044467, 39.757835], [-105.0043354, 39.7580308], [-105.0042255, 39.7581669], [-105.0040806, 39.7583226], [-105.0039623, 39.7584214], [-105.0038687, 39.7584866], [-105.0036488, 39.7586237], [-105.0034476, 39.7587206], [-105.0032102, 39.7588113], [-105.0029715, 39.7588969], [-105.0029305, 39.7589374], [-105.0031533, 39.759194], [-105.0034861, 39.7595808], [-105.0037297, 39.7598638], [-105.0037914, 39.7598154], [-105.0039552, 39.7596847], [-105.0041094, 39.7594399], [-105.0041857, 39.7593708], [-105.0042184, 39.7593744], [-105.0042391, 39.7593438], [-105.0042123, 39.7592662], [-105.0042813, 39.7592111], [-105.0043449, 39.7591097], [-105.004391, 39.7590516], [-105.004531, 39.75892], [-105.0046463, 39.7587921], [-105.004826, 39.758689], [-105.004936, 39.758623], [-105.0051585, 39.7584062], [-105.0052829, 39.7583034], [-105.0053403, 39.7582563], [-105.0054349, 39.7581909], [-105.005546, 39.7580957], [-105.0056244, 39.7579557], [-105.0057178, 39.7578088], [-105.0057415, 39.7575449], [-105.0057007, 39.7574042], [-105.0063233, 39.7566805], [-105.0064663, 39.7564513], [-105.0064801, 39.756424], [-105.0064934, 39.7563974], [-105.006966, 39.7558893], [-105.0071524, 39.7556965], [-105.0072281, 39.755595], [-105.0074179, 39.7554249], [-105.0075185, 39.755263]]]}}, {"type": "Feature", "properties": {"name": "Frog Hollow Park", "leisure": "park"}, "geometry": {"type": "Polygon", "coordinates": [[[-105.0153623, 39.7292303], [-105.0165532, 39.7292511], [-105.01652, 39.7291212], [-105.0164372, 39.7290057], [-105.0163467, 39.7289144], [-105.016266, 39.7288029], [-105.0160829, 39.7286321], [-105.016006, 39.7285021], [-105.0158804, 39.7283773], [-105.0157724, 39.7281612], [-105.0155677, 39.7277692], [-105.0155669, 39.7277651], [-105.0155635, 39.7276189], [-105.015562, 39.7275653], [-105.0155618, 39.7275312], [-105.0156289, 39.727438], [-105.0155855, 39.7272969], [-105.0155005, 39.7271383], [-105.0154915, 39.7268776], [-105.0154891, 39.7266038], [-105.0156068, 39.7262547], [-105.0156444, 39.7261093], [-105.015717, 39.7259671], [-105.0157356, 39.7257574], [-105.0157358, 39.7257156], [-105.0157395, 39.7255439], [-105.0157329, 39.7252686], [-105.0157128, 39.7251915], [-105.0154142, 39.7252214], [-105.0153947, 39.7257977], [-105.0151942, 39.7258072], [-105.0150999, 39.7258959], [-105.0151638, 39.7265414], [-105.0148261, 39.7275729], [-105.0148136, 39.7277744], [-105.014965, 39.7283852], [-105.0152129, 39.7290827], [-105.0153623, 39.7292303]]]}}, {"type": "Feature", "properties": {"name": "Gates Crescent Park", "leisure": "park"}, "geometry": {"type": "Polygon", "coordinates": [[[-105.0163198, 39.744385], [-105.0163292, 39.744287], [-105.0164838, 39.7439265], [-105.0163023, 39.7437452], [-105.0161867, 39.7440402], [-105.0161004, 39.7442285], [-105.016008, 39.7445511], [-105.0159502, 39.7447193], [-105.0159115, 39.7448192], [-105.015855, 39.7448708], [-105.0158215, 39.7449977], [-105.0158805, 39.7452308], [-105.0158376, 39.7454091], [-105.0158215, 39.7455123], [-105.015792, 39.7456494], [-105.0157652, 39.7458463], [-105.0157693, 39.7459288], [-105.0157881, 39.7460174], [-105.0158296, 39.7462172], [-105.0158391, 39.7463927], [-105.0158295, 39.7465176], [-105.0158269, 39.7466063], [-105.0158188, 39.7468435], [-105.0157759, 39.7473054], [-105.0157452, 39.747494], [-105.0157357, 39.747654], [-105.015741, 39.7480561], [-105.0157169, 39.7483922], [-105.0157227, 39.7485622], [-105.0156905, 39.7487066], [-105.015712, 39.7488159], [-105.0156756, 39.748976], [-105.0155323, 39.7493356], [-105.0154813, 39.7495067], [-105.0154057, 39.7497079], [-105.0152207, 39.7499286], [-105.0151483, 39.7499616], [-105.0150666, 39.7500368], [-105.0149605, 39.7501802], [-105.0152112, 39.7503393], [-105.0160442, 39.7497146], [-105.0160844, 39.7496983], [-105.0161379, 39.7496899], [-105.0161662, 39.7496891], [-105.0161521, 39.7497213], [-105.0161863, 39.7497236], [-105.016323, 39.7496848], [-105.0163557, 39.7496839], [-105.0163764, 39.7497364], [-105.0167028, 39.7497682], [-105.0169424, 39.7498758], [-105.0170153, 39.7498189], [-105.0171682, 39.7493818], [-105.0173854, 39.7488456], [-105.0174954, 39.7485507], [-105.017533, 39.7484228], [-105.0177527, 39.747687], [-105.0178401, 39.7473194], [-105.0178721, 39.7470426], [-105.0178788, 39.7467116], [-105.0178064, 39.7464785], [-105.0176723, 39.7463239], [-105.0174282, 39.7461898], [-105.0171921, 39.7461362], [-105.0169507, 39.746097], [-105.0166772, 39.7459609], [-105.0165009, 39.7454162], [-105.0164741, 39.7452677], [-105.0164969, 39.7452368], [-105.0165237, 39.745179], [-105.0165183, 39.7451429], [-105.0164982, 39.7451099], [-105.0164565, 39.745092], [-105.0164392, 39.7449645], [-105.0163198, 39.744385]]]}}, {"type": "Feature", "properties": {"name": "Fishback Landing Park", "leisure": "park"}, "geometry": {"type": "Polygon", "coordinates": [[[-105.0133376, 39.7524613], [-105.0127635, 39.7520071], [-105.0126297, 39.7521052], [-105.0125446, 39.752046], [-105.0124698, 39.752055], [-105.012392, 39.7520705], [-105.012321, 39.7521107], [-105.0122284, 39.7521643], [-105.0121962, 39.7521715], [-105.0121547, 39.7521643], [-105.0121278, 39.7521519], [-105.0119383, 39.7520985], [-105.0118715, 39.7521733], [-105.0117673, 39.7522898], [-105.0116991, 39.7523794], [-105.0116225, 39.7524743], [-105.011597, 39.7526238], [-105.011459, 39.7527031], [-105.0112713, 39.7528516], [-105.0110981, 39.7529806], [-105.0108475, 39.7531795], [-105.0106716, 39.7532817], [-105.0104693, 39.7534414], [-105.010162, 39.7536508], [-105.0100187, 39.7537589], [-105.0099754, 39.7537934], [-105.0096056, 39.7540876], [-105.0098906, 39.754231], [-105.0098883, 39.7542565], [-105.0099866, 39.7543008], [-105.0102613, 39.7539416], [-105.0108692, 39.7536698], [-105.0108237, 39.7536161], [-105.0108227, 39.7535587], [-105.0115845, 39.7532112], [-105.0116636, 39.7531708], [-105.0117955, 39.7531213], [-105.0119465, 39.7531276], [-105.0120476, 39.753098], [-105.0122665, 39.7530028], [-105.0123503, 39.7529664], [-105.0125075, 39.7528981], [-105.0133376, 39.7524613]]]}}, {"type": "Feature", "properties": {"name": "Railyard Dog Park", "leisure": "park"}, "geometry": {"type": "Polygon", "coordinates": [[[-105.0018713, 39.7584077], [-105.0008105, 39.7584082], [-105.0009006, 39.7582409], [-105.0011754, 39.7578315], [-105.0011872, 39.7578405], [-105.0015516, 39.758118], [-105.0015764, 39.7581368], [-105.0015994, 39.7581544], [-105.001879, 39.7583673], [-105.0018713, 39.7584077]]]}}, {"type": "Feature", "properties": {"name": "Confluence East Park", "leisure": "park"}, "geometry": {"type": "Polygon", "coordinates": [[[-105.007835, 39.7549913], [-105.0079282, 39.7548846], [-105.007976, 39.7548296], [-105.0079963, 39.7548063], [-105.0080081, 39.7547927], [-105.0080147, 39.7547851], [-105.0080544, 39.7547663], [-105.0080977, 39.754741], [-105.0081356, 39.7546959], [-105.0081343, 39.7546291], [-105.0081035, 39.7545762], [-105.0080415, 39.7545336], [-105.0080442, 39.7544799], [-105.008069, 39.7544531], [-105.0080771, 39.7544078], [-105.0080378, 39.7543509], [-105.0080005, 39.7542216], [-105.0079412, 39.7540333], [-105.0079161, 39.753869], [-105.0078745, 39.7536968], [-105.0078397, 39.7536306], [-105.0078004, 39.753556], [-105.0077287, 39.7534865], [-105.0076982, 39.7535119], [-105.0076564, 39.7535469], [-105.0078522, 39.7540717], [-105.0070743, 39.7546614], [-105.0074325, 39.7549527], [-105.0076915, 39.7551269], [-105.0077606, 39.7550573], [-105.007835, 39.7549913]]]}}, {"type": "Feature", "properties": {"name": "Union Station North Plaza", "leisure": "park"}, "geometry": {"type": "Polygon", "coordinates": [[[-104.999089, 39.7583948], [-104.9981919, 39.7583815], [-104.998149, 39.7583691], [-104.9981248, 39.7583485], [-104.9981127, 39.7583268], [-104.9981046, 39.7582959], [-104.9981046, 39.7582649], [-104.9981046, 39.7582299], [-104.9981207, 39.7581866], [-104.9981529, 39.7581392], [-104.9981958, 39.7580938], [-104.9982602, 39.7580464], [-104.9983004, 39.7580134], [-104.998346, 39.7579824], [-104.9983943, 39.7579639], [-104.9984372, 39.7579515], [-104.9984801, 39.7579391], [-104.999089, 39.7583948]]]}}, {"type": "Feature", "properties": {"name": "REI Park", "leisure": "park"}, "geometry": {"type": "Polygon", "coordinates": [[[-105.0103292, 39.7555091], [-105.0103406, 39.7554188], [-105.0102916, 39.755126], [-105.0102615, 39.7550381], [-105.0101446, 39.7548001], [-105.0100156, 39.7545395], [-105.0099712, 39.7543682], [-105.0099221, 39.7543587], [-105.009894, 39.7543494], [-105.0098712, 39.754338], [-105.0098524, 39.7543308], [-105.009835, 39.7543257], [-105.0098175, 39.7543257], [-105.0097934, 39.7543257], [-105.0097679, 39.7543308], [-105.0097411, 39.7543401], [-105.0097116, 39.7543525], [-105.0096767, 39.7543731], [-105.0096459, 39.7543958], [-105.0090612, 39.7548199], [-105.0093565, 39.7550528], [-105.009452, 39.7549768], [-105.0095677, 39.7550627], [-105.0094722, 39.7551387], [-105.0101696, 39.7556297], [-105.0103292, 39.7555091]]]}}, {"type": "Feature", "properties": {"leisure": "park"}, "geometry": {"type": "Polygon", "coordinates": [[[-105.0079444, 39.755311], [-105.0079896, 39.7553476], [-105.008004, 39.7553593], [-105.0081318, 39.7554554], [-105.007937, 39.7556087], [-105.007882, 39.7557092], [-105.0076969, 39.7559494], [-105.007607, 39.756069], [-105.007481, 39.7562382], [-105.0074179, 39.7563176], [-105.0073603, 39.7563887], [-105.0073214, 39.7564413], [-105.0072154, 39.7565831], [-105.0071148, 39.7566165], [-105.0069853, 39.756506], [-105.0069205, 39.7564507], [-105.0069529, 39.7564231], [-105.0070629, 39.7562705], [-105.0071767, 39.7561582], [-105.007323, 39.7559158], [-105.0074518, 39.7557426], [-105.0076074, 39.7556096], [-105.007716, 39.7555086], [-105.0079444, 39.755311]]]}}, {"type": "Feature", "properties": {"name": "Platte River at Elitch Gardens Park", "leisure": "park"}, "geometry": {"type": "Polygon", "coordinates": [[[-105.0098377, 39.7534197], [-105.0097921, 39.7533856], [-105.0097798, 39.7532551], [-105.0097722, 39.7531748], [-105.009821, 39.7531172], [-105.0099059, 39.7530407], [-105.0105385, 39.752525], [-105.0112682, 39.7520341], [-105.0117835, 39.7516478], [-105.0121105, 39.7513085], [-105.013068, 39.7506693], [-105.0133239, 39.7505039], [-105.0135547, 39.7503205], [-105.0137077, 39.7502208], [-105.0137613, 39.7501301], [-105.0138512, 39.7500434], [-105.0139567, 39.749989], [-105.0141358, 39.7499354], [-105.0143621, 39.7498496], [-105.0144386, 39.7497908], [-105.0143984, 39.7497609], [-105.0144359, 39.7497196], [-105.0145324, 39.7496114], [-105.0146192, 39.7494469], [-105.0146746, 39.7492907], [-105.0147605, 39.7490556], [-105.0147926, 39.7489443], [-105.0148812, 39.7479668], [-105.0149107, 39.7477688], [-105.0149831, 39.7473914], [-105.0150045, 39.7471934], [-105.015077, 39.7463788], [-105.0151306, 39.7458488], [-105.0151789, 39.7453146], [-105.0152111, 39.7449847], [-105.0152513, 39.7445949], [-105.0152985, 39.7442038], [-105.0153096, 39.7440922], [-105.0153345, 39.7440149], [-105.0154008, 39.7439143], [-105.0154504, 39.7438452], [-105.0155081, 39.7437669], [-105.0156418, 39.7436558], [-105.0157449, 39.7437943], [-105.0159118, 39.7436424], [-105.0159862, 39.7437132], [-105.0157747, 39.744116], [-105.0156728, 39.7442376], [-105.0155789, 39.7444336], [-105.0155399, 39.7445551], [-105.0155278, 39.7446884], [-105.0155011, 39.7447686], [-105.0154929, 39.7449111], [-105.0154648, 39.745338], [-105.015446, 39.7454679], [-105.0154607, 39.7456453], [-105.0154406, 39.745769], [-105.0154433, 39.7460186], [-105.015446, 39.7462867], [-105.0155466, 39.7464383], [-105.0156069, 39.7466435], [-105.0155855, 39.7470105], [-105.0155453, 39.7473498], [-105.0155292, 39.7474673], [-105.015509, 39.7476107], [-105.0154903, 39.7477746], [-105.0154567, 39.7480448], [-105.0153937, 39.7483716], [-105.0153669, 39.748451], [-105.0152703, 39.7484964], [-105.0151858, 39.7489882], [-105.0151444, 39.7492119], [-105.0150873, 39.7495496], [-105.0150463, 39.7496935], [-105.0149364, 39.7497987], [-105.0148425, 39.7499162], [-105.0147245, 39.7500358], [-105.0145045, 39.7501946], [-105.0142712, 39.7503792], [-105.0139172, 39.750603], [-105.013665, 39.7507586], [-105.0134814, 39.7508163], [-105.0132707, 39.7508741], [-105.0130588, 39.7508855], [-105.0124151, 39.7513371], [-105.0121399, 39.7515445], [-105.0118828, 39.7517814], [-105.0116253, 39.7519979], [-105.0112376, 39.7523331], [-105.0109426, 39.7525599], [-105.0108421, 39.7527867], [-105.0105188, 39.7530651], [-105.0102894, 39.753259], [-105.0100574, 39.7533673], [-105.0098604, 39.7533939], [-105.0098377, 39.7534197]]]}}, {"type": "Feature", "properties": {"leisure": "park"}, "geometry": {"type": "Polygon", "coordinates": [[[-104.9882504, 39.7434992], [-104.9880168, 39.7436809], [-104.9876967, 39.7434376], [-104.9879303, 39.7432559], [-104.9882504, 39.7434992]]]}}, {"type": "Feature", "properties": {"leisure": "park"}, "geometry": {"type": "Polygon", "coordinates": [[[-104.9904399, 39.7504202], [-104.9899856, 39.7507668], [-104.9895848, 39.7504562], [-104.9900204, 39.7501239], [-104.990294, 39.7503359], [-104.9903127, 39.7503216], [-104.9904399, 39.7504202]]]}}, {"type": "Feature", "properties": {"leisure": "park"}, "geometry": {"type": "Polygon", "coordinates": [[[-104.9898151, 39.7502151], [-104.9895794, 39.7503988], [-104.9894093, 39.7502697], [-104.989645, 39.750086], [-104.9898151, 39.7502151]]]}}, {"type": "Feature", "properties": {"name": "17th Street Plaza", "leisure": "park"}, "geometry": {"type": "Polygon", "coordinates": [[[-104.9959925, 39.7501441], [-104.9953477, 39.7496602], [-104.9950137, 39.7499233], [-104.9956584, 39.7504072], [-104.9959925, 39.7501441]]]}}, {"type": "Feature", "properties": {"leisure": "park"}, "geometry": {"type": "Polygon", "coordinates": [[[-104.9933625, 39.7502151], [-104.9935046, 39.7501049], [-104.9932769, 39.7499315], [-104.9931481, 39.7500314], [-104.9932958, 39.7501439], [-104.9932825, 39.7501542], [-104.9933625, 39.7502151]]]}}, {"type": "Feature", "properties": {"name": "MacIntosh Park", "leisure": "park"}, "geometry": {"type": "Polygon", "coordinates": [[[-104.9900085, 39.740236], [-104.9891931, 39.7408486], [-104.9891314, 39.7407826], [-104.989118, 39.7407475], [-104.9891207, 39.7407228], [-104.9891421, 39.740698], [-104.9891743, 39.7406836], [-104.9892896, 39.7406403], [-104.9893513, 39.7406114], [-104.9894264, 39.740564], [-104.9898073, 39.7402752], [-104.989861, 39.7402422], [-104.9899334, 39.7402175], [-104.989981, 39.7402236], [-104.9900085, 39.740236]]]}}, {"type": "Feature", "properties": {"leisure": "park"}, "geometry": {"type": "Polygon", "coordinates": [[[-104.9998994, 39.7443507], [-104.9998806, 39.744098], [-104.9998631, 39.7439609], [-104.999835, 39.7438], [-104.9998028, 39.7436484], [-104.9997438, 39.7434742], [-104.9996915, 39.7433504], [-104.9993978, 39.7427173], [-104.9993817, 39.7426915], [-104.9993639, 39.7426665], [-104.9993347, 39.7426441], [-104.9993039, 39.7426265], [-104.9992771, 39.7426141], [-104.9992599, 39.7426092], [-104.9992503, 39.7426327], [-104.9992664, 39.7426379], [-104.9992932, 39.7426492], [-104.9993173, 39.7426606], [-104.9993418, 39.7426789], [-104.9993575, 39.7426997], [-104.999371, 39.7427245], [-104.9996633, 39.7433576], [-104.999717, 39.7434824], [-104.9997706, 39.7436536], [-104.9998041, 39.7438052], [-104.9998323, 39.7439609], [-104.9998511, 39.7440991], [-104.9998685, 39.744327], [-104.9998994, 39.7443507]]]}}, {"type": "Feature", "properties": {"leisure": "park"}, "geometry": {"type": "Polygon", "coordinates": [[[-105.012619, 39.7520802], [-105.0127917, 39.7519576], [-105.0130613, 39.7521706], [-105.0133956, 39.7519727], [-105.0132682, 39.7517758], [-105.0133507, 39.7517072], [-105.0133708, 39.7516237], [-105.0134131, 39.7515753], [-105.0134479, 39.7515516], [-105.0135002, 39.7515309], [-105.0135807, 39.7515021], [-105.0137349, 39.7513783], [-105.013869, 39.7512948], [-105.013979, 39.7512608], [-105.0140038, 39.7512759], [-105.0144438, 39.75108], [-105.0147933, 39.7508791], [-105.0148496, 39.7508502], [-105.014906, 39.7508337], [-105.0149784, 39.7508276], [-105.0150374, 39.7508317], [-105.015083, 39.7508399], [-105.0151259, 39.7508482], [-105.015315, 39.7507647], [-105.0152326, 39.7507187], [-105.0150603, 39.7505955], [-105.0150321, 39.7505339], [-105.0150483, 39.7504713], [-105.0152112, 39.7503393], [-105.0149605, 39.7501802], [-105.0148371, 39.7502462], [-105.0145489, 39.7504533], [-105.0142524, 39.7506586], [-105.0141385, 39.7507338], [-105.0139198, 39.7508586], [-105.0139159, 39.7509153], [-105.0138676, 39.7509503], [-105.0137374, 39.7509721], [-105.0135873, 39.7510674], [-105.0135524, 39.75104], [-105.0133807, 39.7510473], [-105.0130918, 39.7511565], [-105.0129255, 39.7512442], [-105.0127834, 39.7513989], [-105.0126901, 39.7514957], [-105.0125331, 39.7515835], [-105.0123534, 39.7517268], [-105.0121147, 39.7519258], [-105.011966, 39.7520753], [-105.0119383, 39.7520985], [-105.0121278, 39.7521519], [-105.0121547, 39.7521643], [-105.0121962, 39.7521715], [-105.0122284, 39.7521643], [-105.012321, 39.7521107], [-105.012392, 39.7520705], [-105.0124698, 39.752055], [-105.0125536, 39.7520347], [-105.012619, 39.7520802]]]}}, {"type": "Feature", "properties": {"name": "Creekfront Park", "leisure": "park"}, "geometry": {"type": "Polygon", "coordinates": [[[-105.0004071, 39.7467958], [-105.000222, 39.7469066], [-105.0001556, 39.746937], [-105.0001315, 39.7467906], [-105.0001011, 39.7467227], [-105.0000973, 39.7467133], [-105.000039, 39.7466555], [-104.9999964, 39.7466116], [-104.9999808, 39.7465956], [-104.9999037, 39.7465766], [-104.9998819, 39.7465764], [-104.9997077, 39.7464348], [-104.9998078, 39.7463595], [-104.9998405, 39.7463193], [-104.999849, 39.746258], [-104.9998412, 39.7462106], [-104.9998145, 39.7461729], [-104.9998584, 39.7461386], [-104.9999778, 39.7460453], [-105.0000549, 39.7459851], [-105.0001075, 39.745944], [-105.000133, 39.7459811], [-105.0001585, 39.7459749], [-105.0003301, 39.7462193], [-105.0003729, 39.7462845], [-105.000372, 39.74633], [-105.0003639, 39.7463878], [-105.0003707, 39.7464507], [-105.0003811, 39.7465062], [-105.0004111, 39.7466689], [-105.0004176, 39.7467043], [-105.0004325, 39.7467582], [-105.0004071, 39.7467958]]]}}, {"type": "Feature", "properties": {"name": "Pioneer Monument Park", "leisure": "park"}, "geometry": {"type": "Polygon", "coordinates": [[[-104.9879505, 39.7402979], [-104.9875763, 39.7405743], [-104.9875797, 39.7402221], [-104.9877225, 39.7402216], [-104.9878278, 39.7402381], [-104.9879029, 39.7402665], [-104.9879505, 39.7402979]]]}}, {"type": "Feature", "properties": {"name": "Civic Center Park", "leisure": "park"}, "geometry": {"type": "Polygon", "coordinates": [[[-104.9904779, 39.7399444], [-104.9904788, 39.739603], [-104.9906832, 39.7396034], [-104.9906856, 39.7388683], [-104.9904819, 39.7388679], [-104.990483, 39.7385529], [-104.9901443, 39.7385522], [-104.9901275, 39.7385495], [-104.989349, 39.737956], [-104.989286, 39.7379215], [-104.989235, 39.7379009], [-104.989174, 39.7378849], [-104.9891002, 39.7378684], [-104.9890238, 39.7378637], [-104.9888904, 39.737873], [-104.9888273, 39.7378864], [-104.9887757, 39.7379086], [-104.98872, 39.7379416], [-104.9881199, 39.7383881], [-104.9880689, 39.7384247], [-104.9880294, 39.7384459], [-104.9879751, 39.7384696], [-104.9878979, 39.7384964], [-104.9878101, 39.7385207], [-104.9877544, 39.7385305], [-104.9876934, 39.7385397], [-104.9875446, 39.7385413], [-104.9875432, 39.7399443], [-104.9877746, 39.7399577], [-104.9879067, 39.7399902], [-104.9879878, 39.7400201], [-104.9880723, 39.7400614], [-104.9881494, 39.7401109], [-104.9884572, 39.740346], [-104.9885303, 39.7403908], [-104.9886308, 39.7404343], [-104.9887341, 39.7404627], [-104.9888156, 39.7404746], [-104.9889175, 39.7404769], [-104.9889695, 39.740472], [-104.9891066, 39.7404431], [-104.9892119, 39.7403931], [-104.9893145, 39.7403279], [-104.989401, 39.7402526], [-104.989529, 39.7401533], [-104.9896216, 39.7400912], [-104.9896437, 39.7400698], [-104.9896579, 39.7400475], [-104.9896649, 39.7400402], [-104.9896799, 39.7400314], [-104.9898294, 39.7399724], [-104.9898801, 39.7399576], [-104.9899322, 39.7399461], [-104.9900029, 39.7399379], [-104.9900517, 39.7399405], [-104.9900959, 39.7399429], [-104.9901214, 39.7399443], [-104.9901393, 39.7399444], [-104.9901696, 39.7399442], [-104.9904779, 39.7399444]]]}}, {"type": "Feature", "properties": {"name": "Golden Triangle Park", "leisure": "park"}, "geometry": {"type": "Polygon", "coordinates": [[[-104.9894878, 39.7353726], [-104.9893423, 39.7357027], [-104.9889794, 39.735444], [-104.9889781, 39.7353697], [-104.9894878, 39.7353726]]]}}, {"type": "Feature", "properties": {"name": "Ninth Street Historic Park", "leisure": "park"}, "geometry": {"type": "Polygon", "coordinates": [[[-105.0036013, 39.7422837], [-105.0031243, 39.7416241], [-105.0030689, 39.7415704], [-105.0028823, 39.7413208], [-105.0028989, 39.7413141], [-105.0029318, 39.7413002], [-105.0030966, 39.7412283], [-105.0032509, 39.7411601], [-105.0032912, 39.7411425], [-105.0033147, 39.7411291], [-105.0034842, 39.7410533], [-105.0035484, 39.741025], [-105.0035651, 39.7410175], [-105.0036022, 39.7410005], [-105.0036562, 39.7409758], [-105.0039414, 39.7409634], [-105.0039925, 39.7409397], [-105.0040179, 39.7409277], [-105.0040407, 39.7409197], [-105.0040644, 39.7409211], [-105.0040863, 39.7409259], [-105.0041068, 39.7409383], [-105.0042107, 39.7410531], [-105.0042664, 39.7411146], [-105.004327, 39.7411961], [-105.0043412, 39.7412153], [-105.004349, 39.7412248], [-105.004356, 39.7412333], [-105.0044098, 39.741302], [-105.004384, 39.7413133], [-105.0047385, 39.7417797], [-105.0047089, 39.7417927], [-105.0043228, 39.7419616], [-105.0043036, 39.7419694], [-105.0042565, 39.7419903], [-105.0042317, 39.7420098], [-105.0040546, 39.7420952], [-105.0039045, 39.7421541], [-105.003605, 39.7422821], [-105.0036013, 39.7422837]]]}}]}