{"type": "FeatureCollection", "features": [{"type": "Feature", "properties": {"name": "South Platte River", "waterway": "river"}, "geometry": {"type": "LineString", "coordinates": [[-105.002777, 39.6594516], [-105.0030221, 39.6597246], [-105.0032272, 39.6598294], [-105.003425, 39.6599709], [-105.003539, 39.660128], [-105.0036177, 39.6602837], [-105.0041058, 39.6609025], [-105.0043719, 39.6615104], [-105.004479, 39.6620786], [-105.0043701, 39.6622249], [-105.0043176, 39.6623939], [-105.0042291, 39.6625546], [-105.0042517, 39.6627658], [-105.004248, 39.6629201], [-105.0043719, 39.6631094], [-105.0044591, 39.6649561], [-105.0044884, 39.6660212], [-105.0044803, 39.6662266], [-105.0043719, 39.6664063], [-105.0042715, 39.666587], [-105.0041144, 39.6667433], [-105.003814, 39.667001], [-105.0035292, 39.6671336], [-105.0032605, 39.6671961], [-105.0028956, 39.6673247], [-105.0004236, 39.6680845], [-105.0000036, 39.6682676], [-104.9996306, 39.6683975], [-104.9992563, 39.6685932], [-104.9989474, 39.6688773], [-104.9985783, 39.6693927], [-104.9982884, 39.670091], [-104.9980776, 39.6709075], [-104.9979684, 39.6712377], [-104.9977515, 39.6717429], [-104.9974816, 39.6723672], [-104.997426, 39.672655], [-104.9973938, 39.6729734], [-104.9974159, 39.6736275], [-104.9973982, 39.6739], [-104.9974345, 39.6741963], [-104.997487, 39.6743647], [-104.9975139, 39.6746179], [-104.9975882, 39.6748982], [-104.9976811, 39.6751721], [-104.9976796, 39.67538], [-104.9978008, 39.6759009], [-104.9978267, 39.6763128], [-104.9978503, 39.6767731], [-104.9977693, 39.6771141], [-104.9978377, 39.6778468], [-104.9979164, 39.6781786], [-104.9980979, 39.6787786], [-104.9981884, 39.6790987], [-104.9982193, 39.6792081], [-104.9983294, 39.6793945], [-104.9985209, 39.6797629], [-104.9986899, 39.6800881], [-104.9990894, 39.6805079], [-104.9993407, 39.6806426], [-104.9999196, 39.680879], [-105.000608, 39.6811442], [-105.0008095, 39.6812624], [-105.0009472, 39.6813432], [-105.0010381, 39.6814433], [-105.0011395, 39.6816007], [-105.001234, 39.6817367], [-105.0013286, 39.6818727], [-105.0014732, 39.6822443], [-105.0014879, 39.6826445], [-105.0014718, 39.6832161], [-105.0014021, 39.6834834], [-105.0012015, 39.6840152], [-105.0011704, 39.6840977], [-105.0010228, 39.6844734], [-105.0009647, 39.6847566], [-105.0009099, 39.6851808], [-105.000695, 39.6859339], [-105.000537, 39.6862618], [-105.0003769, 39.686875], [-105.0003612, 39.6872329], [-105.0003255, 39.6874808], [-105.0002643, 39.6876966], [-105.0001243, 39.6879678], [-104.9999151, 39.6886597], [-104.9997799, 39.6889596], [-104.9996584, 39.689482], [-104.9995396, 39.6896922], [-104.9994328, 39.6898585], [-104.9992908, 39.6899605], [-104.9990643, 39.6900936], [-104.998348, 39.690442], [-104.9976002, 39.6907892], [-104.9972264, 39.6909309], [-104.9969888, 39.6911263], [-104.9961339, 39.6914021], [-104.9956257, 39.691634], [-104.9947159, 39.6921623], [-104.9942653, 39.692517], [-104.9940293, 39.6927898], [-104.9937868, 39.693092], [-104.9937063, 39.6933749], [-104.9932053, 39.6942824], [-104.9930827, 39.6945707], [-104.9927847, 39.6956098], [-104.9923298, 39.6970891], [-104.9922096, 39.6983109], [-104.992216, 39.6984464], [-104.9923545, 39.6990365], [-104.9925186, 39.6993147], [-104.9931109, 39.7003647], [-104.9932988, 39.7006777], [-104.9938233, 39.7012892], [-104.9943827, 39.7019041], [-104.9948758, 39.7025586], [-104.9952051, 39.7028081], [-104.9955438, 39.7031307], [-104.9963021, 39.7037928], [-104.9971358, 39.7046329], [-104.9972696, 39.7048362], [-104.997354, 39.7051537], [-104.9976079, 39.7056288], [-104.9977709, 39.7059055], [-104.9980736, 39.7064475], [-104.9980805, 39.7067767], [-104.9981348, 39.7070187], [-104.9982731, 39.7073209], [-104.9985437, 39.7076864], [-104.9986759, 39.7079792], [-104.9994913, 39.7098644], [-104.9996855, 39.7102895], [-104.9998612, 39.7106464], [-104.9999709, 39.7109153], [-105.0001157, 39.7111944], [-105.0003603, 39.7116314], [-105.0004002, 39.7117153], [-105.0008166, 39.7125915], [-105.0015295, 39.7140596], [-105.0015801, 39.7142775], [-105.001634, 39.7144536], [-105.0017198, 39.7146334], [-105.0018675, 39.7149028], [-105.0018923, 39.7149501], [-105.0020346, 39.7151624], [-105.002276, 39.7154663], [-105.0024744, 39.7157032], [-105.0028528, 39.7161078], [-105.002949, 39.7161948], [-105.0030947, 39.7163052], [-105.0032661, 39.7164215], [-105.0034067, 39.7165059], [-105.0040602, 39.7169135], [-105.0048182, 39.7173805], [-105.0055998, 39.717815], [-105.0064833, 39.7184765], [-105.0070841, 39.7191037], [-105.0076334, 39.7196648], [-105.0092425, 39.7210681], [-105.0098634, 39.7216066], [-105.0100344, 39.721677], [-105.0102407, 39.7217619], [-105.0106436, 39.7218593], [-105.0109933, 39.7219394], [-105.0112094, 39.7221234], [-105.0113964, 39.7221496], [-105.011882, 39.7221867], [-105.0123593, 39.7223323], [-105.0126459, 39.7224376], [-105.0128223, 39.7225381], [-105.0131042, 39.7227558], [-105.0134327, 39.7229221], [-105.0143583, 39.723559], [-105.0146973, 39.7236589], [-105.0151812, 39.7238527], [-105.0154205, 39.7239937], [-105.0155851, 39.7241396], [-105.0157141, 39.7243522], [-105.0157741, 39.7244742], [-105.0157857, 39.7245841], [-105.0157823, 39.7246568], [-105.0158096, 39.7247714], [-105.0158397, 39.7249497], [-105.0158471, 39.7250675], [-105.0158489, 39.7251466], [-105.0158455, 39.7254388], [-105.0158357, 39.7255684], [-105.0158437, 39.72581], [-105.0157871, 39.7260961], [-105.0157075, 39.7263329], [-105.0156586, 39.7269596], [-105.0157273, 39.7278309], [-105.0159287, 39.7283155], [-105.0161489, 39.7285311], [-105.016274, 39.728697], [-105.0166699, 39.7291514], [-105.0168028, 39.7293606], [-105.0168926, 39.729531], [-105.0169964, 39.7297891], [-105.017009, 39.7301137], [-105.016933, 39.7303204], [-105.0168953, 39.7305782], [-105.0169926, 39.7316408], [-105.0170433, 39.7325128], [-105.0170409, 39.7345114], [-105.0170251, 39.7348952], [-105.0170623, 39.7352335], [-105.0171425, 39.7355685], [-105.017274, 39.7359654], [-105.0173527, 39.736166], [-105.0173589, 39.7361842], [-105.0175329, 39.7364255], [-105.0176789, 39.7366122], [-105.0178384, 39.7370926], [-105.0179503, 39.7375094], [-105.01799, 39.7377488], [-105.01804, 39.7379088], [-105.0180207, 39.7381694], [-105.0180033, 39.7386803], [-105.0179817, 39.7387905], [-105.0179543, 39.7389911], [-105.0178628, 39.7391452], [-105.0177547, 39.7393178], [-105.0175307, 39.7400269], [-105.0174527, 39.7402837], [-105.0171968, 39.740816], [-105.0171488, 39.7409293], [-105.0170222, 39.741258], [-105.0168434, 39.7417222], [-105.0167212, 39.7420395], [-105.0166381, 39.7422975], [-105.0165016, 39.7427446], [-105.0164278, 39.7430074], [-105.0163634, 39.7431671], [-105.015978, 39.7440037], [-105.0158624, 39.7443596], [-105.0158575, 39.7443746], [-105.0158477, 39.7445375], [-105.0158049, 39.7447693], [-105.0156614, 39.7448901], [-105.0155933, 39.7449998], [-105.0155945, 39.7451144], [-105.0155979, 39.7454005], [-105.015566, 39.7460099], [-105.0157368, 39.7465156], [-105.0157017, 39.7470707], [-105.0156478, 39.7476314], [-105.0156289, 39.7479674], [-105.0155254, 39.7483262], [-105.0152904, 39.748616], [-105.0152715, 39.7488703], [-105.0152678, 39.7491975], [-105.0152513, 39.7495446], [-105.0151741, 39.7498022], [-105.0149671, 39.7499954], [-105.0148193, 39.7501344], [-105.0145446, 39.7503192], [-105.0141841, 39.7505304], [-105.0138496, 39.750781], [-105.013491, 39.7509264], [-105.0132231, 39.7509783], [-105.0128681, 39.7511649], [-105.0126392, 39.7513948], [-105.0123302, 39.7515994], [-105.0120813, 39.7518237], [-105.011669, 39.7521687], [-105.0113222, 39.7526026], [-105.0108688, 39.7529427], [-105.0105825, 39.7532452], [-105.0101621, 39.7535197], [-105.0098463, 39.753659], [-105.0095847, 39.7538542]]}}, {"type": "Feature", "properties": {"name": "South Platte River", "waterway": "river"}, "geometry": {"type": "LineString", "coordinates": [[-105.0081549, 39.7548126], [-105.008022, 39.7549828], [-105.0078469, 39.7551285], [-105.0075945, 39.7553863], [-105.0073005, 39.7556972], [-105.007199, 39.7558465], [-105.007136, 39.7559393], [-105.0069351, 39.7561433], [-105.0068375, 39.7564212], [-105.006558, 39.7567108], [-105.0062935, 39.7569564], [-105.0061079, 39.7571603], [-105.0059426, 39.7573565], [-105.0058826, 39.7575046], [-105.00582, 39.7577983], [-105.0057091, 39.7580136], [-105.0055519, 39.758205], [-105.0053355, 39.7583941], [-105.0049835, 39.7587438], [-105.0047111, 39.7589544], [-105.0044203, 39.7592801], [-105.0042604, 39.7595839], [-105.0041066, 39.7597453], [-105.0035673, 39.7601624], [-105.0028549, 39.7605913], [-105.0018851, 39.7609674], [-105.0013787, 39.7610532], [-105.0012134, 39.7610611], [-105.0008145, 39.7610951], [-105.0005884, 39.7611854], [-104.9993273, 39.7617393], [-104.9986922, 39.7620231], [-104.9981082, 39.7621143], [-104.9978424, 39.7622408], [-104.9976919, 39.7623142], [-104.9975249, 39.7624255], [-104.997264, 39.7624909], [-104.9969069, 39.7625311], [-104.9968935, 39.7625353], [-104.9963641, 39.7627016], [-104.9960291, 39.7628068], [-104.9959793, 39.7628224], [-104.9956101, 39.7629586], [-104.9953533, 39.7631117], [-104.9942805, 39.76391], [-104.9937999, 39.7643152], [-104.9934374, 39.7647296], [-104.99304, 39.7649431], [-104.9928766, 39.7650901], [-104.9924759, 39.7652726], [-104.9923734, 39.7654097], [-104.9919243, 39.765587], [-104.9915253, 39.7656914], [-104.9911268, 39.7657815], [-104.9907505, 39.7658665], [-104.9906498, 39.7658893], [-104.9899497, 39.7660033], [-104.9893109, 39.7660674], [-104.9889149, 39.7661677], [-104.988607, 39.7662456], [-104.9871222, 39.7666678], [-104.9864453, 39.7668822], [-104.985971, 39.7670743], [-104.9850631, 39.7673427], [-104.9846246, 39.7675251], [-104.9843842, 39.7677498], [-104.9841051, 39.76808], [-104.9837319, 39.7685217], [-104.9836537, 39.7686673], [-104.9836143, 39.7687899], [-104.9835845, 39.7689996], [-104.9834179, 39.7692758], [-104.9831702, 39.7695446], [-104.9829907, 39.7697655], [-104.9825504, 39.7703075], [-104.9822834, 39.770582], [-104.9817693, 39.7711571], [-104.9802729, 39.7731396], [-104.9788138, 39.7749405], [-104.97803, 39.7760396], [-104.9778997, 39.7763126], [-104.9778546, 39.7764511], [-104.977831, 39.7765937], [-104.9778207, 39.7767427], [-104.9778687, 39.7773964], [-104.9779469, 39.778463], [-104.978007, 39.7790039], [-104.977492, 39.7802267], [-104.9771173, 39.7808142], [-104.9768225, 39.781273], [-104.9763914, 39.7818298], [-104.9760393, 39.7824446], [-104.9758566, 39.7828541], [-104.9756921, 39.7833645], [-104.9755063, 39.7839641], [-104.9753692, 39.7845855], [-104.975384, 39.7851152], [-104.9753939, 39.7853742], [-104.975362, 39.785796], [-104.9752978, 39.7860637], [-104.9752258, 39.7862639], [-104.9750116, 39.7865883], [-104.9746123, 39.7869849], [-104.9741933, 39.7872934], [-104.9735791, 39.7876726], [-104.972994, 39.7880272], [-104.9725381, 39.7883749], [-104.9721587, 39.7886648], [-104.9717074, 39.7890025], [-104.9711647, 39.7893877], [-104.9706476, 39.7897466], [-104.9699516, 39.7902347], [-104.9698545, 39.7903079], [-104.9695958, 39.7904767], [-104.9692393, 39.7906751], [-104.9689836, 39.7908249], [-104.9686889, 39.7910248], [-104.9684507, 39.7912062], [-104.9681578, 39.7914475]]}}, {"type": "Feature", "properties": {"natural": "water"}, "geometry": {"type": "LineString", "coordinates": [[-105.0082371, 39.7545213], [-105.0082233, 39.7544985], [-105.0082086, 39.7544743], [-105.0082116, 39.7544212], [-105.0081784, 39.7543227], [-105.008137, 39.7541997], [-105.007945, 39.7536286], [-105.0078108, 39.7534243], [-105.0077969, 39.7534049], [-105.0076489, 39.753287], [-105.0076314, 39.7532731], [-105.0074598, 39.7531391], [-105.0071861, 39.7529177], [-105.006902, 39.752686], [-105.0068206, 39.7526221], [-105.0067717, 39.7525837], [-105.0065733, 39.7524259], [-105.0063535, 39.7522653], [-105.0061578, 39.7521195], [-105.0058517, 39.7518794], [-105.0058115, 39.7518506], [-105.0056655, 39.7517498], [-105.0054454, 39.7515485], [-105.0053073, 39.7514516], [-105.0051691, 39.751334], [-105.005164, 39.7513168], [-105.0049666, 39.7511649], [-105.0045296, 39.7508631], [-105.0043573, 39.7507352], [-105.0042104, 39.7506332], [-105.003938, 39.7504256], [-105.003784, 39.7503022], [-105.003651, 39.7501668], [-105.0035209, 39.7500514], [-105.0033092, 39.749897], [-105.0031092, 39.7497482], [-105.0030584, 39.7497175], [-105.0028892, 39.7495781], [-105.0027768, 39.7494814], [-105.0026559, 39.7493832], [-105.0026364, 39.7493823], [-105.0023693, 39.7492145], [-105.0022806, 39.7491577], [-105.0021974, 39.7490906], [-105.0020459, 39.7489906], [-105.0019614, 39.748938], [-105.0018713, 39.7488615], [-105.0018192, 39.7488298], [-105.0017897, 39.7488081], [-105.0016315, 39.7486596], [-105.0015253, 39.7485336], [-105.0014395, 39.7484294], [-105.0013966, 39.7483634], [-105.0013204, 39.7482296], [-105.0012743, 39.7481252], [-105.0012613, 39.7480956], [-105.0012142, 39.7480025], [-105.0011803, 39.7479453], [-105.0010761, 39.7477695], [-105.0009996, 39.747652], [-105.0009446, 39.7475437], [-105.0008602, 39.7473436], [-105.0007853, 39.747214], [-105.0007142, 39.747083], [-105.0006315, 39.7469655], [-105.0005988, 39.7469314], [-105.0005344, 39.7467902], [-105.0005141, 39.7467456], [-105.000486, 39.746627], [-105.0004632, 39.7465992], [-105.0004417, 39.7465022], [-105.0004216, 39.746461], [-105.0004538, 39.7464146], [-105.0004927, 39.7462001], [-105.000517, 39.7460663], [-105.0005048, 39.7459155], [-105.0004967, 39.7456804], [-105.0004567, 39.7452806], [-105.0004392, 39.7449176], [-105.0004189, 39.7447214], [-105.0003977, 39.7445938], [-105.0003883, 39.7445227], [-105.0003856, 39.7444814], [-105.0003841, 39.7444386], [-105.0003843, 39.7443504], [-105.0003668, 39.7440947], [-105.0003371, 39.7438026], [-105.0003346, 39.7436647], [-105.0002996, 39.7435335], [-105.000273, 39.7434482], [-105.0001938, 39.7433162], [-105.0001105, 39.7431612], [-105.0000141, 39.7429986], [-104.9999484, 39.7428315], [-104.9999308, 39.7427632], [-104.9999113, 39.7426856], [-104.9999017, 39.7426473], [-104.9998907, 39.7426036], [-104.9998478, 39.7425087], [-104.9998076, 39.7424139], [-104.9997714, 39.7423479], [-104.9997016, 39.7421901], [-104.9995595, 39.7419271], [-104.9994777, 39.7417828], [-104.9994214, 39.7416838], [-104.9993192, 39.7415237], [-104.9992618, 39.7413981], [-104.9991236, 39.7411681], [-104.9990904, 39.7411103], [-104.999078, 39.7410887], [-104.9990803, 39.7410495], [-104.9990701, 39.7410243], [-104.9990512, 39.7409959], [-104.999019, 39.7409784], [-104.9989625, 39.7408905], [-104.9989506, 39.7408536], [-104.9989444, 39.7407911], [-104.9989437, 39.7407843], [-104.998933, 39.7407327], [-104.9989129, 39.7406915], [-104.9988244, 39.7405234], [-104.9987493, 39.7403728], [-104.9987146, 39.7402988], [-104.9984695, 39.7399218], [-104.9984598, 39.7399069], [-104.998363, 39.7397633], [-104.9983458, 39.7397275], [-104.9982975, 39.7396667], [-104.9981981, 39.7395633], [-104.998131, 39.7394591], [-104.998076, 39.7393704], [-104.9980438, 39.7393477], [-104.9980371, 39.7393065], [-104.9980049, 39.7392642], [-104.9978614, 39.7390703], [-104.9977555, 39.7389218], [-104.9976082, 39.7387231], [-104.9974752, 39.7385588], [-104.9974669, 39.7385485], [-104.9973287, 39.7383761], [-104.9973156, 39.7383598], [-104.997274, 39.7382783], [-104.9972311, 39.7382319], [-104.9971817, 39.7381569], [-104.9970784, 39.7380393], [-104.9969993, 39.7379352], [-104.9969562, 39.7378782], [-104.9968704, 39.7377833], [-104.9968207, 39.7377245], [-104.9967418, 39.7376351], [-104.9967309, 39.7375863], [-104.9966962, 39.7375423], [-104.9966023, 39.7374154], [-104.9965326, 39.7373154], [-104.9964935, 39.7372532], [-104.9964519, 39.7371852], [-104.9963755, 39.7370872], [-104.9963165, 39.7370181], [-104.996265, 39.736939], [-104.9961711, 39.7367963], [-104.9961569, 39.7367747], [-104.9960672, 39.7366419], [-104.9960161, 39.7365798], [-104.9959557, 39.7365117], [-104.9959088, 39.736456], [-104.9958686, 39.7363859], [-104.9958283, 39.7363385], [-104.9957868, 39.73629], [-104.9957586, 39.7362374], [-104.9957304, 39.7361807], [-104.9956716, 39.7360923], [-104.9955802, 39.7360105], [-104.9955375, 39.7359386], [-104.9955134, 39.7359046], [-104.9953884, 39.7357455], [-104.9952948, 39.7356044], [-104.9952384, 39.7355178], [-104.9951875, 39.7354518], [-104.9951403, 39.7354072], [-104.9951296, 39.7353763], [-104.9950974, 39.7353113], [-104.9950494, 39.7352404], [-104.9950022, 39.7351844], [-104.9948978, 39.7350486], [-104.9948507, 39.7349998], [-104.9947892, 39.7349021], [-104.9946911, 39.7347843], [-104.9946106, 39.7346688], [-104.9945181, 39.734546], [-104.9944526, 39.7344494], [-104.9943815, 39.7343421], [-104.9943399, 39.7342833], [-104.994301, 39.7342318], [-104.9942633, 39.7341975], [-104.9942271, 39.7341387], [-104.9941817, 39.7340853], [-104.9940326, 39.7338984], [-104.9939966, 39.7338285], [-104.9940313, 39.7338179], [-104.9940087, 39.7337883], [-104.9939897, 39.7337942], [-104.9939666, 39.7337638], [-104.9938607, 39.7336249], [-104.9938477, 39.7336078], [-104.9937469, 39.7334807], [-104.9937107, 39.7334209], [-104.9936036, 39.7332798], [-104.9934666, 39.7331166], [-104.9933312, 39.7329444], [-104.9933312, 39.7329124], [-104.993204, 39.7327518], [-104.9931609, 39.7326938], [-104.9929894, 39.7324733], [-104.9928873, 39.7323328], [-104.9927829, 39.7321907], [-104.9927129, 39.7320883], [-104.9926606, 39.7320162], [-104.9925413, 39.73188], [-104.992493, 39.7317872], [-104.9924583, 39.7317256], [-104.992406, 39.7316657], [-104.9922878, 39.7315283], [-104.9922047, 39.7314025], [-104.9921483, 39.7313313], [-104.9920989, 39.7312419], [-104.9920386, 39.7311449], [-104.9919646, 39.7310353], [-104.9918884, 39.7309428], [-104.9918345, 39.7308703], [-104.9917046, 39.7307066], [-104.9915638, 39.7305199], [-104.9914136, 39.7303054], [-104.9913155, 39.7301875], [-104.9912404, 39.7301205], [-104.9912326, 39.7300949], [-104.9911841, 39.7300266], [-104.9911347, 39.7299516], [-104.9911175, 39.7299022], [-104.9910973, 39.729879], [-104.990999, 39.729766], [-104.9909603, 39.7297216], [-104.9909306, 39.7296615], [-104.9908569, 39.7295646], [-104.9907442, 39.729448], [-104.9906946, 39.7293841], [-104.9906503, 39.729318], [-104.9905982, 39.7292451], [-104.9905471, 39.7291809], [-104.9905068, 39.7291437], [-104.9904344, 39.7290623], [-104.9904305, 39.7290584], [-104.9902664, 39.7288925], [-104.9902509, 39.7288769], [-104.9901903, 39.7288075], [-104.9901221, 39.7287273], [-104.9900227, 39.728626], [-104.9899183, 39.728519], [-104.9898725, 39.7284661], [-104.9897639, 39.7283726], [-104.9896941, 39.7283124], [-104.9896219, 39.7282745], [-104.9896075, 39.72823], [-104.9895667, 39.7281835], [-104.9894864, 39.7281384], [-104.9893441, 39.7280319], [-104.9892328, 39.7279329], [-104.9891174, 39.7278421], [-104.9890316, 39.7277946], [-104.9889672, 39.727741], [-104.9888908, 39.7276812], [-104.988817, 39.7276606], [-104.98875, 39.7276141], [-104.988691, 39.7275677], [-104.9886548, 39.7275595], [-104.9886134, 39.7275731], [-104.9884832, 39.7275128], [-104.9884537, 39.7275392], [-104.9884482, 39.7275502], [-104.9885502, 39.727608], [-104.9885703, 39.727641], [-104.9886125, 39.7276623], [-104.9886481, 39.7276802], [-104.9886925, 39.7277], [-104.9887178, 39.7277214], [-104.9887996, 39.72774], [-104.9889055, 39.727807], [-104.988982, 39.7278555], [-104.9890653, 39.727897], [-104.9891925, 39.7279916], [-104.9892355, 39.7280288], [-104.9894849, 39.7282134], [-104.9896662, 39.7283684], [-104.9897064, 39.728409], [-104.989802, 39.7285057], [-104.9898365, 39.7285406], [-104.9898792, 39.7286146], [-104.9899516, 39.7286879], [-104.9900455, 39.728792], [-104.9901689, 39.7288859], [-104.9901884, 39.7289084], [-104.9902556, 39.7289857], [-104.9903378, 39.7290661], [-104.9903796, 39.7291069], [-104.9904561, 39.7291883], [-104.9904921, 39.7292562], [-104.9905404, 39.7293294], [-104.9905929, 39.7294225], [-104.9906812, 39.729545], [-104.9907216, 39.7296195], [-104.9907777, 39.7296584], [-104.9908274, 39.729744], [-104.9908622, 39.7297811], [-104.9909011, 39.729808], [-104.9909049, 39.7298136], [-104.9909768, 39.7299209], [-104.9910153, 39.7299784], [-104.9910285, 39.7300246], [-104.99114, 39.7301166], [-104.9912377, 39.7302246], [-104.9913008, 39.7303061], [-104.9914203, 39.7304642], [-104.9915263, 39.730623], [-104.9916065, 39.7306857], [-104.9916481, 39.730728], [-104.9916642, 39.7307672], [-104.9917232, 39.7308713], [-104.991819, 39.7310223], [-104.9919102, 39.7311832], [-104.9919552, 39.7312323], [-104.9920667, 39.7313615], [-104.992139, 39.7314675], [-104.9922811, 39.7316603], [-104.9924139, 39.7318388], [-104.9925762, 39.7320564], [-104.9926419, 39.7321636], [-104.9927773, 39.7323266], [-104.9928685, 39.7324607], [-104.9929436, 39.7325586], [-104.9930442, 39.7326803], [-104.9930992, 39.732768], [-104.9931195, 39.732825], [-104.9932, 39.7328982], [-104.9932762, 39.7330145], [-104.9933956, 39.733195], [-104.9935954, 39.7334776], [-104.993641, 39.7335168], [-104.9936734, 39.7335655], [-104.9937094, 39.7336148], [-104.993757, 39.7336787], [-104.9938099, 39.7337499], [-104.9938581, 39.7338147], [-104.993869, 39.7338293], [-104.9939336, 39.7339316], [-104.9940205, 39.7340551], [-104.9941332, 39.7341748], [-104.9942246, 39.7342885], [-104.9942928, 39.7343913], [-104.9943547, 39.7344751], [-104.9944244, 39.7345659], [-104.9944966, 39.7346719], [-104.9945516, 39.7347595], [-104.9946189, 39.7348743], [-104.9946897, 39.7349699], [-104.9947836, 39.7350834], [-104.9949083, 39.7352329], [-104.9949057, 39.7352504], [-104.9949499, 39.7352927], [-104.9949968, 39.7353608], [-104.9950518, 39.7354247], [-104.9950963, 39.7355013], [-104.9951808, 39.735623], [-104.9952532, 39.7357076], [-104.9953026, 39.7357929], [-104.9953549, 39.7358703], [-104.9954166, 39.7359363], [-104.9954933, 39.7360417], [-104.9955775, 39.7361363], [-104.9956461, 39.7362346], [-104.9957119, 39.7363542], [-104.9958084, 39.7364903], [-104.9959021, 39.7366252], [-104.9959895, 39.7367409], [-104.9960239, 39.7367971], [-104.9961209, 39.7369554], [-104.996181, 39.7369985], [-104.9962347, 39.7370728], [-104.9963031, 39.7371594], [-104.9963473, 39.7372295], [-104.9964198, 39.7373254], [-104.9964949, 39.7374306], [-104.9965807, 39.7375595], [-104.9966372, 39.7376268], [-104.9967043, 39.7377176], [-104.9967888, 39.7378393], [-104.996869, 39.7379463], [-104.9969416, 39.7380404], [-104.9970152, 39.7381257], [-104.9970677, 39.738195], [-104.9971265, 39.7382505], [-104.997167, 39.7383456], [-104.9972098, 39.7384014], [-104.9973373, 39.7385673], [-104.9973961, 39.7386032], [-104.9974239, 39.7386312], [-104.9974564, 39.738664], [-104.9975254, 39.7387239], [-104.9975921, 39.7388293], [-104.997671, 39.7389445], [-104.997793, 39.7391044], [-104.9978896, 39.7392281], [-104.9979059, 39.7392645], [-104.9979339, 39.7393178], [-104.9979555, 39.7394047], [-104.9979862, 39.7394519], [-104.9980534, 39.7395439], [-104.9981234, 39.7396051], [-104.9981438, 39.7396488], [-104.9982077, 39.7397182], [-104.9982732, 39.7397974], [-104.998296, 39.73985], [-104.9983335, 39.7399046], [-104.9983564, 39.7399413], [-104.9985781, 39.7402969], [-104.9986017, 39.7403347], [-104.9986379, 39.7403625], [-104.998709, 39.7404873], [-104.9987627, 39.7405626], [-104.9988111, 39.7406556], [-104.9988351, 39.7407441], [-104.9988359, 39.7407511], [-104.9988458, 39.740842], [-104.9988755, 39.7408959], [-104.9989088, 39.7409338], [-104.9989504, 39.7409812], [-104.9989679, 39.7410318], [-104.998988, 39.7410864], [-104.9990443, 39.7411607], [-104.9990872, 39.7412308], [-104.9990935, 39.7412419], [-104.9991417, 39.7413263], [-104.9991444, 39.741331], [-104.9991947, 39.7414177], [-104.9992671, 39.7415662], [-104.9992763, 39.7416093], [-104.999243, 39.7416126], [-104.999251, 39.7416343], [-104.9992817, 39.741633], [-104.9992979, 39.7416557], [-104.9993206, 39.7416876], [-104.9993742, 39.7417804], [-104.9994307, 39.7418983], [-104.9994895, 39.7420001], [-104.9996156, 39.742261], [-104.9996746, 39.7423425], [-104.9997081, 39.7423899], [-104.9997365, 39.7424623], [-104.9997698, 39.7425992], [-104.9997943, 39.7426691], [-104.9998221, 39.7427487], [-104.9998446, 39.7428069], [-104.999884, 39.7429088], [-105.0000971, 39.7433169], [-105.0001614, 39.743452], [-105.000203, 39.7435521], [-105.0002218, 39.7436315], [-105.0002473, 39.7437459], [-105.0002555, 39.7439039], [-105.000258, 39.7439975], [-105.0002526, 39.7440697], [-105.0002542, 39.7441545], [-105.0002568, 39.7441884], [-105.0002783, 39.7444732], [-105.000313, 39.7446637], [-105.0003398, 39.7449101], [-105.0003465, 39.7450988], [-105.0003747, 39.7451958], [-105.0003749, 39.7453528], [-105.0003666, 39.7453927], [-105.0003733, 39.7457124], [-105.0003787, 39.7458124], [-105.0003814, 39.745867], [-105.0003729, 39.7462845], [-105.000372, 39.74633], [-105.0003639, 39.7463878], [-105.0003707, 39.7464507], [-105.0003811, 39.7465062], [-105.0003894, 39.7465507], [-105.0004176, 39.7467043], [-105.0004325, 39.7467582], [-105.0005477, 39.7469632], [-105.0006214, 39.7470859], [-105.0007167, 39.7472704], [-105.0008266, 39.7475148], [-105.0008816, 39.7476355], [-105.0009634, 39.7477973], [-105.001079, 39.7480389], [-105.0011165, 39.7481173], [-105.0011058, 39.7481296], [-105.0011337, 39.7482057], [-105.0011487, 39.7482131], [-105.0011968, 39.7482314], [-105.0012249, 39.7482552], [-105.0012397, 39.7482799], [-105.0012732, 39.7483047], [-105.0013083, 39.748375], [-105.0013126, 39.7483821], [-105.0013537, 39.74845], [-105.0014129, 39.7485668], [-105.0014437, 39.7486019], [-105.0014932, 39.7486439], [-105.0016769, 39.7488151], [-105.0017305, 39.7488553], [-105.001921, 39.7489976], [-105.002263, 39.7492584], [-105.0022701, 39.7492644], [-105.0024292, 39.7493997], [-105.0024775, 39.7494544], [-105.0025741, 39.7495245], [-105.0026613, 39.7495657], [-105.0027028, 39.7495915], [-105.0027141, 39.7495999], [-105.0027685, 39.74964], [-105.0028157, 39.7496557], [-105.0028597, 39.7496833], [-105.0029174, 39.7497462], [-105.003085, 39.7498761], [-105.0032996, 39.750036], [-105.0033023, 39.750038], [-105.0034592, 39.7501761], [-105.0036043, 39.7502939], [-105.0037704, 39.7504153], [-105.0043122, 39.7508298], [-105.0044476, 39.7509443], [-105.004626, 39.7511041], [-105.0048137, 39.7512485], [-105.0049151, 39.7513293], [-105.0050478, 39.7514351], [-105.0051812, 39.751533], [-105.0051973, 39.7515421], [-105.0052067, 39.7515475], [-105.0053155, 39.7515848], [-105.005373, 39.7516269], [-105.0054201, 39.7516797], [-105.005487, 39.7517145], [-105.005609, 39.751798], [-105.0057136, 39.751864], [-105.0057583, 39.7519023], [-105.0061387, 39.752228], [-105.0062138, 39.7522847], [-105.0064485, 39.7524713], [-105.0065612, 39.7525651], [-105.0067972, 39.7527641], [-105.0068605, 39.7527819], [-105.0069139, 39.7528085], [-105.006993, 39.7528744], [-105.0070898, 39.7529644], [-105.0071553, 39.7530085], [-105.0073752, 39.7531765], [-105.0075067, 39.7532704], [-105.007563, 39.7533137], [-105.0077287, 39.7534865], [-105.0078004, 39.753556], [-105.0078397, 39.7536306], [-105.0078745, 39.7536968], [-105.0079161, 39.753869], [-105.0079412, 39.7540333], [-105.0080005, 39.7542216], [-105.0080378, 39.7543509], [-105.0080771, 39.7544078], [-105.008069, 39.7544531], [-105.0080442, 39.7544799], [-105.0080415, 39.7545336], [-105.0081035, 39.7545762], [-105.008189, 39.7545578], [-105.0082371, 39.7545213]]}}, {"type": "Feature", "properties": {"waterway": "weir"}, "geometry": {"type": "LineString", "coordinates": [[-105.0026559, 39.7493832], [-105.0026574, 39.74945], [-105.0026589, 39.7495168]]}}, {"type": "Feature", "properties": {"waterway": "canal"}, "geometry": {"type": "LineString", "coordinates": [[-105.0025177, 39.749425], [-105.002578, 39.7495153], [-105.002586, 39.7495192], [-105.0026823, 39.7495664], [-105.0027537, 39.7496013], [-105.0029114, 39.7497062]]}}, {"type": "Feature", "properties": {"waterway": "canal"}, "geometry": {"type": "LineString", "coordinates": [[-105.0011186, 39.7479591], [-105.0012036, 39.7480104], [-105.0012083, 39.7480198], [-105.0012481, 39.7481], [-105.0012542, 39.7481122], [-105.0012771, 39.7481746], [-105.0012725, 39.748237]]}}, {"type": "Feature", "properties": {"waterway": "weir"}, "geometry": {"type": "LineString", "coordinates": [[-105.0050419, 39.7513951], [-105.0050934, 39.7513541], [-105.0051468, 39.7513116]]}}, {"type": "Feature", "properties": {"waterway": "canal"}, "geometry": {"type": "LineString", "coordinates": [[-105.004942, 39.7512499], [-105.0049679, 39.751367], [-105.0049874, 39.7513808], [-105.0050819, 39.7514519], [-105.005132, 39.7514862], [-105.0051976, 39.7515356], [-105.0053719, 39.7515638]]}}, {"type": "Feature", "properties": {"natural": "water"}, "geometry": {"type": "LineString", "coordinates": [[-104.9941271, 39.7569572], [-104.9941342, 39.7569526], [-104.9941395, 39.7569468], [-104.9941425, 39.75694], [-104.9941431, 39.7569329], [-104.9941408, 39.7569252], [-104.9941357, 39.7569184], [-104.9941311, 39.7569148], [-104.9941256, 39.7569119], [-104.9941164, 39.7569091], [-104.9941066, 39.7569085], [-104.9940987, 39.7569096], [-104.9940914, 39.7569121], [-104.9940861, 39.7569147], [-104.9940787, 39.7569115], [-104.9940706, 39.7569096], [-104.9940634, 39.756909], [-104.9940561, 39.7569095], [-104.9940481, 39.7569113], [-104.9940383, 39.7569098], [-104.9940283, 39.7569102], [-104.994017, 39.7569132], [-104.9940074, 39.7569186], [-104.9940015, 39.7569242], [-104.9939975, 39.7569307], [-104.9939956, 39.7569378], [-104.9939965, 39.7569477], [-104.9940015, 39.7569568], [-104.9940075, 39.7569625], [-104.9940151, 39.756967], [-104.9940228, 39.7569697], [-104.994031, 39.7569711], [-104.9940423, 39.7569708], [-104.994053, 39.7569682], [-104.9940576, 39.7569693], [-104.9940688, 39.7569693], [-104.9940796, 39.7569668], [-104.9940871, 39.7569633], [-104.9940935, 39.7569586], [-104.9940993, 39.7569602], [-104.9941104, 39.7569612], [-104.9941191, 39.7569601], [-104.9941271, 39.7569572]]}}, {"type": "Feature", "properties": {"waterway": "artificial"}, "geometry": {"type": "LineString", "coordinates": [[-105.0048197, 39.7338972], [-105.0048214, 39.7338947], [-105.0048257, 39.7338913], [-105.0048277, 39.7338903], [-105.0048354, 39.7338885], [-105.0048408, 39.7338885], [-105.0048512, 39.7338898], [-105.0048562, 39.7338909], [-105.0048634, 39.7338946], [-105.0048673, 39.7338975], [-105.0048743, 39.7339047], [-105.004881, 39.7339143], [-105.0048844, 39.733923], [-105.0048862, 39.7339318], [-105.0048863, 39.7339386], [-105.0048849, 39.7339427], [-105.0048801, 39.7339502], [-105.0048777, 39.7339528], [-105.0048651, 39.7339642], [-105.0048301, 39.7339885]]}}, {"type": "Feature", "properties": {"waterway": "artificial"}, "geometry": {"type": "LineString", "coordinates": [[-105.0048944, 39.7339782], [-105.0049014, 39.7339772], [-105.0049085, 39.7339734], [-105.0049142, 39.7339674], [-105.0049167, 39.733962], [-105.0049177, 39.7339585], [-105.0049175, 39.7339553], [-105.0049167, 39.7339496], [-105.0049151, 39.7339442], [-105.0049127, 39.7339399], [-105.0049098, 39.7339353], [-105.004905, 39.7339307], [-105.0048992, 39.7339283], [-105.0048923, 39.7339268], [-105.0048841, 39.7339265], [-105.0048653, 39.7339275], [-105.0048545, 39.7339273], [-105.0048498, 39.733927], [-105.0048398, 39.7339253], [-105.0048343, 39.7339237], [-105.0048264, 39.7339197], [-105.004824, 39.7339179], [-105.0048192, 39.733912], [-105.0048179, 39.733909], [-105.0048179, 39.7339027], [-105.0048197, 39.7338972]]}}, {"type": "Feature", "properties": {"waterway": "artificial"}, "geometry": {"type": "LineString", "coordinates": [[-105.0049583, 39.73396], [-105.0049487, 39.7339538], [-105.0049392, 39.7339484], [-105.004932, 39.7339454], [-105.0049202, 39.7339424], [-105.0049165, 39.733942], [-105.0049038, 39.7339414], [-105.0048975, 39.7339419], [-105.0048879, 39.7339439], [-105.004883, 39.7339457], [-105.0048756, 39.7339509], [-105.0048728, 39.7339544], [-105.0048709, 39.7339596], [-105.0048712, 39.7339645], [-105.0048744, 39.7339705], [-105.0048769, 39.7339727], [-105.0048827, 39.733976], [-105.0048871, 39.7339771], [-105.0048944, 39.7339782]]}}, {"type": "Feature", "properties": {"waterway": "weir"}, "geometry": {"type": "LineString", "coordinates": [[-105.0067494, 39.7526757], [-105.0068206, 39.7526221]]}}, {"type": "Feature", "properties": {"waterway": "weir"}, "geometry": {"type": "LineString", "coordinates": [[-105.0068259, 39.7527386], [-105.0067494, 39.7526757], [-105.0067226, 39.7526541], [-105.0067025, 39.7526572], [-105.0066502, 39.7526139]]}}, {"type": "Feature", "properties": {"name": "South Platte River", "waterway": "river"}, "geometry": {"type": "LineString", "coordinates": [[-105.0095847, 39.7538542], [-105.0091151, 39.7540872], [-105.0089354, 39.7541883], [-105.0086565, 39.7543512], [-105.0084848, 39.7544873], [-105.0083158, 39.7546419], [-105.0081549, 39.7548126]]}}, {"type": "Feature", "properties": {"waterway": "weir"}, "geometry": {"type": "LineString", "coordinates": [[-105.0081784, 39.7543227], [-105.0081109, 39.7543369], [-105.0080378, 39.7543509]]}}, {"type": "Feature", "properties": {"name": "South Platte River", "waterway": "river"}, "geometry": {"type": "LineString", "coordinates": [[-105.0095847, 39.7538542], [-105.0092785, 39.7541838], [-105.0088501, 39.7545323], [-105.0086538, 39.7546419], [-105.0084513, 39.7547529], [-105.0081549, 39.7548126]]}}, {"type": "Feature", "properties": {"name": "Cherry Creek", "waterway": "river"}, "geometry": {"type": "LineString", "coordinates": [[-104.9170977, 39.6932941], [-104.9171789, 39.6933512], [-104.9172457, 39.6933915], [-104.9173206, 39.6934329], [-104.9173947, 39.6934709], [-104.91746, 39.6935024], [-104.9175176, 39.6935426], [-104.9175781, 39.693593], [-104.9176216, 39.6936412], [-104.917659, 39.6936808], [-104.9176916, 39.6937096], [-104.9177311, 39.6937389], [-104.9177754, 39.6937732], [-104.9178052, 39.6938061], [-104.9178308, 39.6938415], [-104.9178502, 39.6938784], [-104.9178628, 39.693911], [-104.9178785, 39.6939576], [-104.9178988, 39.693995], [-104.9179249, 39.6940282], [-104.9179637, 39.6940602], [-104.9179886, 39.6940806], [-104.9180333, 39.6941053], [-104.9180704, 39.6941208], [-104.9180998, 39.6941288], [-104.9181307, 39.6941332], [-104.9181634, 39.6941342], [-104.9181978, 39.6941348], [-104.9182306, 39.6941324], [-104.918275, 39.6941265], [-104.9183189, 39.6941222], [-104.9183636, 39.6941237], [-104.9184077, 39.6941347], [-104.9184671, 39.694157], [-104.9185412, 39.6941927], [-104.918639, 39.6942535], [-104.91869, 39.6942945], [-104.9187093, 39.6943234], [-104.9187223, 39.694354], [-104.9187281, 39.6943862], [-104.9187351, 39.6944513], [-104.9187418, 39.6944884], [-104.9187566, 39.6945183], [-104.9187776, 39.6945433], [-104.9188044, 39.6945605], [-104.9188381, 39.6945772], [-104.9188929, 39.6945998], [-104.9189865, 39.694637], [-104.919222, 39.6947465], [-104.919298, 39.6947782], [-104.9194255, 39.6948234], [-104.9195184, 39.6948738], [-104.9195719, 39.6949089], [-104.9196079, 39.6949424], [-104.9196486, 39.6949922], [-104.9197002, 39.6950419], [-104.919754, 39.6950831], [-104.9198412, 39.69514], [-104.919977, 39.6952177], [-104.9200751, 39.6952723], [-104.9201632, 39.695316], [-104.920234, 39.6953477], [-104.9203107, 39.6953744], [-104.9204143, 39.6954001], [-104.9205786, 39.6954305], [-104.9206461, 39.6954495], [-104.9207001, 39.6954742], [-104.9207175, 39.6954869], [-104.9207681, 39.6955239], [-104.9208684, 39.6955964], [-104.9208959, 39.6956158], [-104.9210005, 39.69569], [-104.9210422, 39.6957276], [-104.9210862, 39.695777], [-104.9211306, 39.6958275], [-104.9211815, 39.6958755], [-104.9212566, 39.6959352], [-104.9213507, 39.6959959], [-104.9214224, 39.6960393], [-104.9214562, 39.6960598], [-104.9215283, 39.6961063], [-104.9215898, 39.6961387], [-104.9216345, 39.6961561], [-104.9217055, 39.6961676], [-104.9217681, 39.6961778], [-104.9218236, 39.696188], [-104.9218776, 39.6961984], [-104.9223268, 39.6963293], [-104.9223804, 39.6963502], [-104.9224377, 39.6963805], [-104.9226126, 39.6964933], [-104.922763, 39.6966241], [-104.922854, 39.6966964], [-104.9229098, 39.6967336], [-104.9229624, 39.6967636], [-104.9233119, 39.6968249], [-104.9237893, 39.697126], [-104.9237596, 39.6973646], [-104.9243156, 39.6977588], [-104.9244254, 39.6977996], [-104.9247099, 39.6978086], [-104.9247924, 39.6978559], [-104.924942, 39.6980709], [-104.9250992, 39.6982427], [-104.9253904, 39.6984825], [-104.9258358, 39.6988186], [-104.9260017, 39.6990808], [-104.9262215, 39.6993812], [-104.9263242, 39.6997127], [-104.9264246, 39.7000367], [-104.9265758, 39.7002192], [-104.9267317, 39.7003224], [-104.9269678, 39.7003684], [-104.9270637, 39.7004214], [-104.9280194, 39.7017877], [-104.9287752, 39.7025275], [-104.9297896, 39.7032363], [-104.930428, 39.7034592], [-104.931061, 39.7035087], [-104.9333355, 39.7042919], [-104.9333865, 39.7043094], [-104.9333462, 39.7045199], [-104.9333909, 39.7045274], [-104.9340812, 39.7046437], [-104.9344808, 39.7047737], [-104.9347034, 39.7047366], [-104.9357193, 39.7051766], [-104.9359868, 39.7052595], [-104.9361218, 39.7053145], [-104.9363631, 39.7054355], [-104.9365272, 39.7054731], [-104.93671, 39.705499], [-104.9369542, 39.7055756], [-104.9371228, 39.7056526], [-104.9373842, 39.7057681], [-104.9376843, 39.7058984], [-104.9378501, 39.7059691], [-104.9380217, 39.7060289], [-104.9384257, 39.7061483], [-104.9386673, 39.7062221], [-104.9388376, 39.7062411], [-104.9390054, 39.7062495], [-104.9391829, 39.7062473], [-104.9393135, 39.7062605], [-104.9395377, 39.7063131], [-104.9396889, 39.7063453], [-104.9398258, 39.7063508], [-104.9399278, 39.7063428], [-104.940062, 39.7062993], [-104.9401559, 39.7062792], [-104.9402952, 39.7062794], [-104.9405442, 39.7063019], [-104.9409464, 39.7063467], [-104.9411382, 39.7063828], [-104.9413057, 39.706419], [-104.9414604, 39.7064749], [-104.9420648, 39.7067406], [-104.942215, 39.7068318], [-104.9425733, 39.7071162], [-104.9427475, 39.7072262], [-104.9428772, 39.7072957], [-104.9431229, 39.7074737], [-104.9433658, 39.7076916], [-104.9437754, 39.7080033], [-104.9438986, 39.7081258], [-104.9440036, 39.7082496], [-104.944102, 39.708377], [-104.9441969, 39.7084638], [-104.9443001, 39.7085382], [-104.9444248, 39.7085964], [-104.9445848, 39.7086652], [-104.9446868, 39.7087064], [-104.9447521, 39.7087423], [-104.9448039, 39.7087943], [-104.9448475, 39.7088615], [-104.944878, 39.7089403], [-104.9448994, 39.7090219], [-104.9449232, 39.7090829], [-104.9449503, 39.7091332], [-104.9450456, 39.7092149], [-104.946276, 39.7100948], [-104.9472931, 39.7110976], [-104.9484508, 39.7118657], [-104.9487265, 39.7120139], [-104.9489795, 39.7122143], [-104.9491962, 39.7124518], [-104.9493147, 39.7127248], [-104.9496658, 39.7129889], [-104.9497621, 39.7130616], [-104.9502589, 39.7134362], [-104.9506411, 39.7136085], [-104.9509162, 39.713849], [-104.9512859, 39.7142734], [-104.9516036, 39.7144932], [-104.9525806, 39.7148026], [-104.9535386, 39.7153097], [-104.9540015, 39.7154355], [-104.954467, 39.7155199], [-104.9547537, 39.7155719], [-104.9551664, 39.7156732], [-104.9553278, 39.715711], [-104.9554453, 39.7157307], [-104.9560432, 39.7157516], [-104.9562687, 39.7157673], [-104.9564691, 39.7158025], [-104.9566449, 39.7158689], [-104.9567558, 39.7159101], [-104.9568501, 39.7159286], [-104.9569325, 39.7159244], [-104.9572278, 39.7158791], [-104.9573651, 39.7158707], [-104.9575, 39.7158811], [-104.9576253, 39.7158996], [-104.9577737, 39.7158895], [-104.9578971, 39.71584], [-104.9580442, 39.7157845], [-104.9582241, 39.7157475], [-104.9584325, 39.7157408], [-104.9586855, 39.7157105], [-104.9589547, 39.715664], [-104.959266, 39.7156194], [-104.9595428, 39.7156091], [-104.9596355, 39.7156167], [-104.9597106, 39.7156204], [-104.9598266, 39.7156249], [-104.9599776, 39.7156158], [-104.9601862, 39.7155887], [-104.9604255, 39.7155579], [-104.96081, 39.7155014], [-104.9609634, 39.715479], [-104.9611083, 39.715479], [-104.9611762, 39.7154854], [-104.961256, 39.7155036], [-104.9613282, 39.715515], [-104.9614119, 39.7155117], [-104.9614978, 39.715493], [-104.961686, 39.7154468], [-104.9618703, 39.7153801], [-104.9619981, 39.7153116], [-104.9621122, 39.7152563], [-104.9622388, 39.7152193], [-104.9624718, 39.7151697], [-104.9626645, 39.7151373], [-104.9628116, 39.7151079], [-104.9629729, 39.7150894], [-104.9631084, 39.715064], [-104.9631941, 39.7150169], [-104.9632879, 39.7149515], [-104.9634025, 39.7148378], [-104.963488, 39.7147903], [-104.9635941, 39.7147706], [-104.9636775, 39.7147428], [-104.9637552, 39.714707], [-104.9638874, 39.714647], [-104.9640445, 39.7145897], [-104.9642018, 39.7145475], [-104.9643032, 39.7144991], [-104.9643661, 39.7144524], [-104.9644424, 39.7143873], [-104.9645367, 39.7143378], [-104.9647196, 39.7142653], [-104.9648835, 39.7142062], [-104.9649891, 39.7141765], [-104.9650999, 39.7141511], [-104.9651886, 39.7141423], [-104.9652731, 39.7141423], [-104.9653744, 39.7141587], [-104.9655532, 39.7141916], [-104.9658932, 39.7142667], [-104.9661067, 39.7143196], [-104.9662978, 39.7143926], [-104.9667917, 39.7147063], [-104.9674908, 39.7151601], [-104.9677829, 39.7154319], [-104.9679848, 39.7155639], [-104.96827, 39.7157856], [-104.9683781, 39.7159231], [-104.9684826, 39.7160592], [-104.9685718, 39.7161752], [-104.9687216, 39.7163194], [-104.9688789, 39.7164391], [-104.9690788, 39.7166059], [-104.9693977, 39.7169], [-104.9694959, 39.7169868], [-104.9696173, 39.7171239], [-104.9697251, 39.7172286], [-104.9698112, 39.7173251], [-104.9698811, 39.7173824], [-104.9700802, 39.7174943], [-104.9702829, 39.7175851], [-104.9704895, 39.7176575], [-104.9708553, 39.717781], [-104.9710048, 39.7178595], [-104.9711494, 39.7179032], [-104.9712896, 39.7179378], [-104.9714576, 39.7179548], [-104.971941, 39.7180538], [-104.9727826, 39.7182849], [-104.9743203, 39.7186493], [-104.9756714, 39.7189848], [-104.9762413, 39.7191744], [-104.9767672, 39.7193583], [-104.9771181, 39.7195277], [-104.977739, 39.7198344], [-104.9791527, 39.7207625], [-104.9798762, 39.7212076], [-104.9816229, 39.7223344], [-104.9833781, 39.7234323], [-104.9838701, 39.7238619], [-104.9851548, 39.7251685], [-104.9857839, 39.7258328], [-104.9863811, 39.7263283], [-104.9867942, 39.7265779], [-104.9884537, 39.7275392], [-104.9885215, 39.7275784], [-104.9890821, 39.7278631], [-104.9899029, 39.7285438], [-104.9904162, 39.729116], [-104.9910514, 39.729928], [-104.9916985, 39.7307591], [-104.9921292, 39.7313928], [-104.9932414, 39.7328957], [-104.9937135, 39.7335557], [-104.9944431, 39.734559], [-104.995061, 39.7353973], [-104.9957219, 39.7362949], [-104.9962369, 39.7370275], [-104.9969236, 39.7379384], [-104.997528, 39.7386645], [-104.997743, 39.7389667], [-104.9979064, 39.7391935], [-104.9983054, 39.739793], [-104.9985956, 39.7402167], [-104.9988204, 39.7406048], [-104.9988547, 39.7406906], [-104.9988633, 39.7407698], [-104.9988891, 39.7408754], [-104.9989809, 39.7409829], [-104.9991055, 39.7412074], [-104.9993125, 39.7415823], [-104.999653, 39.7422284], [-104.9997808, 39.7424571], [-104.9998161, 39.7426507], [-104.9999448, 39.7429873], [-105.0000907, 39.7432447], [-105.0002333, 39.74347], [-105.0002828, 39.7436631], [-105.000304, 39.7440411], [-105.0003334, 39.7445908], [-105.0003822, 39.7448991], [-105.0004222, 39.7453001], [-105.0004267, 39.745457], [-105.0004374, 39.745836], [-105.000417, 39.7463841], [-105.0003982, 39.7464537], [-105.0004493, 39.7466944], [-105.0006274, 39.7470342], [-105.0009531, 39.7476684], [-105.0011186, 39.7479591], [-105.0011386, 39.7480551], [-105.0012036, 39.7481884], [-105.0012725, 39.748237], [-105.0013615, 39.7483971], [-105.0015246, 39.7486281], [-105.0018421, 39.7489118], [-105.0021855, 39.749156], [-105.0025177, 39.749425], [-105.0026574, 39.74945], [-105.0027689, 39.7495092], [-105.0028606, 39.7496104], [-105.0029114, 39.7497062], [-105.0030761, 39.7498374], [-105.0037819, 39.7503768], [-105.004942, 39.7512499], [-105.0050934, 39.7513541], [-105.0053719, 39.7515638], [-105.0056697, 39.7518105], [-105.0067688, 39.7526336], [-105.0074979, 39.7532227], [-105.0077312, 39.7534149], [-105.0077382, 39.7534206], [-105.0078245, 39.7535377], [-105.0079107, 39.7536628], [-105.0080542, 39.7541597], [-105.0081109, 39.7543369], [-105.0081347, 39.7544113], [-105.008189, 39.7545578], [-105.0082115, 39.7546181], [-105.0081549, 39.7548126]]}}, {"type": "Feature", "properties": {"natural": "water"}, "geometry": {"type": "LineString", "coordinates": [[-105.0105162, 39.7517916], [-105.0105447, 39.7518199], [-105.0105068, 39.7518425], [-105.0104782, 39.7518142], [-105.0105162, 39.7517916]]}}, {"type": "Feature", "properties": {"natural": "water"}, "geometry": {"type": "LineString", "coordinates": [[-105.0126089, 39.7493467], [-105.0126221, 39.7493444], [-105.0126351, 39.7493464], [-105.0126565, 39.7493826], [-105.0127007, 39.7494204], [-105.0127575, 39.7494462], [-105.0128219, 39.7494577], [-105.0128293, 39.7494706], [-105.012777, 39.7495624], [-105.0127551, 39.7495864], [-105.0127386, 39.7496046], [-105.0127113, 39.7496346], [-105.0126402, 39.7496831], [-105.0125598, 39.749713], [-105.0124874, 39.7497264], [-105.0124203, 39.7497274], [-105.0123479, 39.7497284], [-105.0123103, 39.7497408], [-105.0122719, 39.7497733], [-105.0122441, 39.7497574], [-105.0122218, 39.749737], [-105.0122015, 39.7497014], [-105.0121977, 39.7496635], [-105.0122036, 39.74964], [-105.0122138, 39.7496215], [-105.0122158, 39.7496179], [-105.0122336, 39.7495983], [-105.0122563, 39.7495819], [-105.0122936, 39.7495699], [-105.0123103, 39.7495645], [-105.0123653, 39.749548], [-105.0123921, 39.7495325], [-105.0124203, 39.7494964], [-105.012431, 39.7494614], [-105.0124404, 39.7494201], [-105.0124579, 39.7493799], [-105.01249, 39.7493418], [-105.0125213, 39.749323], [-105.012526, 39.7493302], [-105.0125337, 39.7493364], [-105.0125486, 39.7493398], [-105.0125689, 39.7493389], [-105.0125848, 39.7493413], [-105.0125964, 39.749345], [-105.0126089, 39.7493467]]}}, {"type": "Feature", "properties": {"name": "Disaster Canyon", "waterway": "canal"}, "geometry": {"type": "LineString", "coordinates": [[-105.0127731, 39.7478996], [-105.0127423, 39.7479134], [-105.0127055, 39.7479192], [-105.0126717, 39.7479152], [-105.0126345, 39.7479198], [-105.0124738, 39.7480108], [-105.0124481, 39.748032], [-105.0124328, 39.7480585], [-105.0124296, 39.7480874], [-105.0124388, 39.7481155], [-105.0124595, 39.7481398], [-105.0124893, 39.7481575], [-105.0125246, 39.7481669], [-105.012562, 39.7481669], [-105.0125974, 39.7481576], [-105.012626, 39.7481548], [-105.0126556, 39.7481617], [-105.0126909, 39.748171], [-105.0127283, 39.748171], [-105.0127637, 39.7481617], [-105.0127933, 39.7481442], [-105.0128172, 39.7481212], [-105.0128459, 39.7481036], [-105.0128799, 39.748094], [-105.0129171, 39.7480895], [-105.0129542, 39.7480945], [-105.0129872, 39.7481086], [-105.0130057, 39.7481255], [-105.0130194, 39.7481473], [-105.0130257, 39.748168], [-105.0130362, 39.7481886], [-105.0130571, 39.748202], [-105.0130912, 39.748213], [-105.0131299, 39.7482162], [-105.0131629, 39.7482302], [-105.0131881, 39.7482518], [-105.0132028, 39.7482782], [-105.0132055, 39.7483069], [-105.0131961, 39.7483347], [-105.0131788, 39.7483489], [-105.013147, 39.7483675], [-105.0131213, 39.7483888], [-105.0131061, 39.7484153], [-105.0131029, 39.7484442], [-105.0131121, 39.7484723], [-105.0131327, 39.7484965], [-105.0131625, 39.7485143], [-105.0131979, 39.7485236], [-105.0132352, 39.7485236], [-105.0132706, 39.7485144], [-105.0133002, 39.7484968], [-105.0133208, 39.7484728], [-105.0133303, 39.748445], [-105.0133285, 39.7484263], [-105.013326, 39.7484164], [-105.0133274, 39.7484076], [-105.0133319, 39.7483994], [-105.0133405, 39.7483916], [-105.013352, 39.7483863], [-105.0133642, 39.7483842], [-105.0133766, 39.7483851], [-105.0133882, 39.7483888], [-105.0134249, 39.7483963], [-105.0134623, 39.7483963], [-105.0134977, 39.748387], [-105.0135273, 39.7483695], [-105.0135479, 39.7483455], [-105.0135573, 39.7483177], [-105.0135546, 39.7482891], [-105.0135399, 39.7482626], [-105.0135147, 39.7482411], [-105.0134817, 39.748227], [-105.0134446, 39.748222], [-105.0134074, 39.7482266], [-105.0133741, 39.7482402], [-105.0133425, 39.7482514], [-105.0133051, 39.7482555], [-105.0132698, 39.7482462], [-105.01324, 39.7482284], [-105.0132194, 39.7482042], [-105.0132102, 39.7481761], [-105.0132134, 39.7481472], [-105.0132327, 39.7481243], [-105.0132673, 39.7481063], [-105.0132868, 39.7480947], [-105.0133074, 39.7480707], [-105.0133168, 39.7480429], [-105.0133141, 39.7480142], [-105.0132995, 39.7479878], [-105.0132742, 39.7479663], [-105.0132412, 39.7479522], [-105.0132041, 39.7479472], [-105.0131669, 39.7479392], [-105.0131488, 39.7479284], [-105.0131282, 39.7479041]]}}, {"type": "Feature", "properties": {"natural": "water"}, "geometry": {"type": "LineString", "coordinates": [[-105.0139911, 39.7476286], [-105.0139884, 39.7476482], [-105.0140179, 39.7476688], [-105.0140125, 39.7478338], [-105.0139495, 39.7479751], [-105.0139441, 39.7479967], [-105.0139094, 39.7480526], [-105.0137216, 39.7479839], [-105.0136946, 39.7480116], [-105.0137431, 39.7480558], [-105.013691, 39.7480861], [-105.0137373, 39.748127], [-105.013729, 39.7481377], [-105.0137117, 39.7481371], [-105.0136942, 39.7481315], [-105.0136744, 39.7481308], [-105.0136666, 39.7481384], [-105.0136685, 39.7481495], [-105.0136825, 39.7481571], [-105.0136945, 39.7481611], [-105.0137317, 39.7481947], [-105.0137379, 39.748217], [-105.0137335, 39.7482344], [-105.0137175, 39.7482669], [-105.0137074, 39.7482788], [-105.0136863, 39.7482871], [-105.0136645, 39.7482873], [-105.0136437, 39.7482803], [-105.0136142, 39.7482267], [-105.0135753, 39.7481823], [-105.0135096, 39.7481503], [-105.0133508, 39.7480835], [-105.0133637, 39.7480541], [-105.0133675, 39.7480234], [-105.0133739, 39.7479211], [-105.0132288, 39.7478949], [-105.0132125, 39.7478919], [-105.0131977, 39.7478808], [-105.0131913, 39.7478697], [-105.0131886, 39.7478571], [-105.0131925, 39.7478446], [-105.0132029, 39.7478373], [-105.0132146, 39.747829], [-105.0132217, 39.7478253], [-105.0132335, 39.7478223], [-105.0132463, 39.7478246], [-105.0132639, 39.7478311], [-105.0132936, 39.7478448], [-105.0133343, 39.7478516], [-105.0133737, 39.7478548], [-105.0134133, 39.7478459], [-105.0134437, 39.7478257], [-105.0134508, 39.747811], [-105.0134494, 39.7477944], [-105.0134708, 39.7477703], [-105.013478, 39.7477533], [-105.0134797, 39.7477364], [-105.013479, 39.7477136], [-105.0134725, 39.7476931], [-105.013459, 39.7476721], [-105.0134371, 39.7476544], [-105.0134097, 39.7476394], [-105.0133867, 39.7476316], [-105.0133427, 39.7474986], [-105.0134726, 39.7474461], [-105.0134002, 39.747596], [-105.0135405, 39.7476361], [-105.0135444, 39.7476279], [-105.0135481, 39.7476202], [-105.013557, 39.7476019], [-105.0135901, 39.7476018], [-105.0136732, 39.7476173], [-105.0137054, 39.7476006], [-105.0137143, 39.7475684], [-105.0137951, 39.74758], [-105.0138554, 39.7476152], [-105.0138958, 39.7476265], [-105.0139441, 39.7476348], [-105.0139911, 39.7476286]]}}, {"type": "Feature", "properties": {"name": "Disaster Canyon", "waterway": "canal"}, "geometry": {"type": "LineString", "coordinates": [[-105.0131282, 39.7479041], [-105.013119, 39.747876], [-105.0131222, 39.7478471], [-105.0131374, 39.7478206], [-105.0131631, 39.7477994], [-105.0131964, 39.7477857], [-105.0132336, 39.7477812], [-105.0132707, 39.7477862], [-105.0133037, 39.7478002], [-105.013331, 39.7478115], [-105.0133707, 39.7478189], [-105.0134061, 39.7478142], [-105.0134356, 39.7477967], [-105.0134563, 39.7477727], [-105.0134657, 39.7477449], [-105.013463, 39.7477162], [-105.0134483, 39.7476898], [-105.0134231, 39.7476683], [-105.0133901, 39.7476542], [-105.013353, 39.7476492], [-105.0133157, 39.7476538], [-105.0127875, 39.7478928]]}}, {"type": "Feature", "properties": {"waterway": "weir"}, "geometry": {"type": "LineString", "coordinates": [[-105.0089258, 39.7546314], [-105.0087313, 39.7544745]]}}, {"type": "Feature", "properties": {"natural": "water"}, "geometry": {"type": "LineString", "coordinates": [[-104.988001, 39.7364285], [-104.9879058, 39.7365462], [-104.9879156, 39.7365712], [-104.9880238, 39.7364379], [-104.988001, 39.7364285]]}}, {"type": "Feature", "properties": {"natural": "water"}, "geometry": {"type": "LineString", "coordinates": [[-104.9950166, 39.7488403], [-104.9950091, 39.7488346], [-104.9949924, 39.7488475], [-104.9949716, 39.7488316], [-104.9949955, 39.7488131], [-104.9949892, 39.7488083], [-104.9949924, 39.7488058], [-104.9949683, 39.7487877], [-104.9949609, 39.7487935], [-104.9949562, 39.74879], [-104.9949525, 39.7487929], [-104.9949573, 39.7487965], [-104.9949415, 39.7488091], [-104.9949223, 39.748795], [-104.9949287, 39.7487899], [-104.9949133, 39.7487786], [-104.9949652, 39.7487369], [-104.9949608, 39.7487337], [-104.9949723, 39.7487245], [-104.9949653, 39.7487193], [-104.9949876, 39.7487015], [-104.9950005, 39.748711], [-104.9950092, 39.748704], [-104.9950172, 39.7487099], [-104.9950273, 39.7487018], [-104.9950575, 39.7487242], [-104.9950505, 39.7487297], [-104.9950566, 39.7487343], [-104.9950494, 39.7487399], [-104.9950621, 39.7487494], [-104.9950723, 39.7487414], [-104.995087, 39.7487525], [-104.9950923, 39.7487483], [-104.995106, 39.7487587], [-104.9950902, 39.7487709], [-104.9950769, 39.7487608], [-104.9950665, 39.7487677], [-104.9950749, 39.7487607], [-104.9950555, 39.7487457], [-104.9950339, 39.7487621], [-104.9950445, 39.7487703], [-104.9950358, 39.748777], [-104.995043, 39.7487825], [-104.9950379, 39.7487864], [-104.9950473, 39.7487937], [-104.9950206, 39.7488141], [-104.995026, 39.7488182], [-104.9950328, 39.748813], [-104.9950424, 39.7488204], [-104.9950166, 39.7488403]]}}, {"type": "Feature", "properties": {"natural": "water"}, "geometry": {"type": "LineString", "coordinates": [[-104.9938593, 39.7496307], [-104.9938588, 39.7496], [-104.9938009, 39.7496006], [-104.9938007, 39.7495894], [-104.9937917, 39.7495895], [-104.9937919, 39.7496016], [-104.9937736, 39.7496018], [-104.9937737, 39.749609], [-104.9937971, 39.7496368], [-104.9937747, 39.7496364], [-104.9937735, 39.7496745], [-104.993781, 39.7496746], [-104.9937817, 39.7496518], [-104.9938283, 39.7496526], [-104.9938287, 39.7496393], [-104.9938591, 39.7496398], [-104.9938593, 39.7496307]]}}, {"type": "Feature", "properties": {"name": "Seal Fountain and Reflecting Pool", "natural": "water"}, "geometry": {"type": "LineString", "coordinates": [[-104.9889747, 39.7402505], [-104.9889983, 39.7402307], [-104.9890128, 39.7402062], [-104.9890166, 39.7401776], [-104.9890079, 39.7401496], [-104.9889877, 39.7401254], [-104.9889582, 39.7401077], [-104.9889227, 39.740097], [-104.9888864, 39.7400911], [-104.9888562, 39.7400891], [-104.9888194, 39.7400896], [-104.9887859, 39.7400937], [-104.9887528, 39.7401025], [-104.988722, 39.7401166], [-104.9886985, 39.7401375], [-104.9886848, 39.740163], [-104.9886823, 39.7401906], [-104.9886912, 39.7402173], [-104.9887096, 39.7402395], [-104.9887358, 39.7402565], [-104.9887675, 39.7402665], [-104.9888012, 39.7402726], [-104.9888341, 39.7402757], [-104.988877, 39.7402752], [-104.9889086, 39.7402721], [-104.9889444, 39.7402637], [-104.9889747, 39.7402505]]}}, {"type": "Feature", "properties": {"natural": "water"}, "geometry": {"type": "LineString", "coordinates": [[-105.0123209, 39.7507523], [-105.0123104, 39.7507681], [-105.0122953, 39.7507766], [-105.0121769, 39.7507083], [-105.0122075, 39.7506805], [-105.0123209, 39.7507523]]}}, {"type": "Feature", "properties": {"waterway": "drain"}, "geometry": {"type": "LineString", "coordinates": [[-105.0012787, 39.7453766], [-105.0012851, 39.7453986], [-105.0013262, 39.7456723]]}}, {"type": "Feature", "properties": {"waterway": "drain"}, "geometry": {"type": "LineString", "coordinates": [[-105.0070175, 39.7406388], [-105.0072363, 39.7405986]]}}, {"type": "Feature", "properties": {"waterway": "drain"}, "geometry": {"type": "LineString", "coordinates": [[-105.0064421, 39.739374], [-105.0064422, 39.7393832], [-105.006468, 39.7394858]]}}, {"type": "Feature", "properties": {"waterway": "drain"}, "geometry": {"type": "LineString", "coordinates": [[-105.006468, 39.7394858], [-105.0065674, 39.7399478]]}}, {"type": "Feature", "properties": {"waterway": "drain"}, "geometry": {"type": "LineString", "coordinates": [[-105.0100963, 39.7384598], [-105.0101148, 39.7384927], [-105.0100489, 39.7394421]]}}, {"type": "Feature", "properties": {"waterway": "drain"}, "geometry": {"type": "LineString", "coordinates": [[-105.0100489, 39.7394421], [-105.0099941, 39.7394886]]}}, {"type": "Feature", "properties": {"waterway": "drain"}, "geometry": {"type": "LineString", "coordinates": [[-105.0099941, 39.7394886], [-105.0099693, 39.7394983], [-105.0099527, 39.7395048], [-105.0098088, 39.7395299]]}}, {"type": "Feature", "properties": {"waterway": "drain"}, "geometry": {"type": "LineString", "coordinates": [[-105.0099679, 39.739464], [-105.0099693, 39.7394983]]}}, {"type": "Feature", "properties": {"natural": "water"}, "geometry": {"type": "LineString", "coordinates": [[-105.0064422, 39.7394902], [-105.006468, 39.7394858], [-105.0064923, 39.7394817], [-105.0066641, 39.7399557], [-105.0066086, 39.7399555], [-105.0065019, 39.7399552], [-105.0065019, 39.7399257], [-105.0064478, 39.739926], [-105.0064475, 39.7399038], [-105.0064422, 39.7394902]]}}, {"type": "Feature", "properties": {"natural": "water"}, "geometry": {"type": "LineString", "coordinates": [[-105.0072251, 39.7405927], [-105.0072332, 39.7406052], [-105.0070543, 39.7406884], [-105.0070175, 39.7406388], [-105.0069822, 39.7405913], [-105.0072251, 39.7405927]]}}, {"type": "Feature", "properties": {"natural": "water"}, "geometry": {"type": "LineString", "coordinates": [[-105.0087227, 39.7413961], [-105.0087511, 39.7413893], [-105.0087753, 39.7413929], [-105.0087897, 39.7414034], [-105.0087989, 39.7414158], [-105.0088019, 39.7414308], [-105.0087537, 39.741485], [-105.0087364, 39.7414854], [-105.0087221, 39.7414849], [-105.008708, 39.7414823], [-105.0086927, 39.7414727], [-105.0086871, 39.7414599], [-105.0086874, 39.7414465], [-105.0086946, 39.7414272], [-105.0087046, 39.7414075], [-105.0087227, 39.7413961]]}}, {"type": "Feature", "properties": {"natural": "water"}, "geometry": {"type": "LineString", "coordinates": [[-105.0099527, 39.7395048], [-105.0099501, 39.7394971], [-105.0099868, 39.7394866], [-105.0099931, 39.7394852], [-105.0099941, 39.7394886], [-105.0099928, 39.7394944], [-105.0099863, 39.7395036], [-105.0099781, 39.7395122], [-105.0099556, 39.7395165], [-105.0099527, 39.7395048]]}}, {"type": "Feature", "properties": {"natural": "water"}, "geometry": {"type": "LineString", "coordinates": [[-105.007066, 39.742099], [-105.0069478, 39.7421495], [-105.0070229, 39.7422535], [-105.0071411, 39.7422031], [-105.007066, 39.742099]]}}, {"type": "Feature", "properties": {"natural": "water"}, "geometry": {"type": "LineString", "coordinates": [[-105.0033906, 39.7453516], [-105.0034138, 39.7453474], [-105.0034289, 39.7453532], [-105.0034506, 39.7453667], [-105.0034625, 39.7453822], [-105.0034609, 39.7453919], [-105.003455, 39.7453989], [-105.003428, 39.7454132], [-105.0034014, 39.7454275], [-105.003376, 39.7454319], [-105.0033476, 39.7454335], [-105.0033284, 39.7454232], [-105.0033293, 39.7454123], [-105.0033906, 39.7453516]]}}, {"type": "Feature", "properties": {"waterway": "drain"}, "geometry": {"type": "LineString", "coordinates": [[-105.0066656, 39.7391052], [-105.0067497, 39.7391046], [-105.0067801, 39.7391693], [-105.0069556, 39.7394703], [-105.0069903, 39.7395509]]}}, {"type": "Feature", "properties": {"natural": "water"}, "geometry": {"type": "LineString", "coordinates": [[-105.0066587, 39.7390928], [-105.0066747, 39.7390926], [-105.006913, 39.7390903], [-105.0069155, 39.7392476], [-105.0069526, 39.739384], [-105.0070268, 39.7395408], [-105.0069903, 39.7395509], [-105.0069716, 39.7395561], [-105.0068063, 39.739303], [-105.0067226, 39.7392074], [-105.0066656, 39.7391052], [-105.0066587, 39.7390928]]}}, {"type": "Feature", "properties": {"natural": "water"}, "geometry": {"type": "LineString", "coordinates": [[-105.0012787, 39.7453766], [-105.001296, 39.7453756], [-105.0013198, 39.7453857], [-105.0013293, 39.7453962], [-105.0013341, 39.74541], [-105.0013305, 39.7454219], [-105.0013216, 39.7454315], [-105.0013109, 39.7454411], [-105.001315, 39.7454631], [-105.0013824, 39.7456015], [-105.001389, 39.7456309], [-105.0013758, 39.7456616], [-105.0013592, 39.7456758], [-105.0013377, 39.7456836], [-105.0013162, 39.7456836], [-105.001296, 39.7456794], [-105.0012757, 39.7456684], [-105.0012656, 39.7456552], [-105.0012548, 39.7456332], [-105.0012519, 39.7456075], [-105.0012775, 39.7454627], [-105.0012745, 39.7454466], [-105.0012638, 39.7454352], [-105.0012513, 39.7454267], [-105.001245, 39.7454157], [-105.0012447, 39.7454027], [-105.0012489, 39.7453926], [-105.0012608, 39.7453816], [-105.0012787, 39.7453766]]}}, {"type": "Feature", "properties": {"natural": "water"}, "geometry": {"type": "LineString", "coordinates": [[-105.0087706, 39.7406001], [-105.008791, 39.7406179], [-105.0087963, 39.7406406], [-105.0087928, 39.7406597], [-105.0087769, 39.7406755], [-105.008745, 39.740681], [-105.0081245, 39.7406188], [-105.0081186, 39.7406034], [-105.0081186, 39.7405821], [-105.0081233, 39.7405644], [-105.0081422, 39.7405535], [-105.0087706, 39.7406001]]}}, {"type": "Feature", "properties": {"waterway": "drain"}, "geometry": {"type": "LineString", "coordinates": [[-105.0087963, 39.7406406], [-105.0081703, 39.7405833]]}}, {"type": "Feature", "properties": {"waterway": "drain"}, "geometry": {"type": "LineString", "coordinates": [[-105.0094491, 39.7375326], [-105.0100276, 39.7375315], [-105.0102203, 39.7376498], [-105.0102475, 39.7376495]]}}, {"type": "Feature", "properties": {"waterway": "drain"}, "geometry": {"type": "LineString", "coordinates": [[-105.0097904, 39.7435286], [-105.0098338, 39.7435338], [-105.0099489, 39.7435478], [-105.0099572, 39.7435508]]}}, {"type": "Feature", "properties": {"natural": "water"}, "geometry": {"type": "LineString", "coordinates": [[-105.0087015, 39.7447879], [-105.0086966, 39.7447821], [-105.0085099, 39.7448666], [-105.0085355, 39.7448943], [-105.0087015, 39.7447879]]}}, {"type": "Feature", "properties": {"natural": "water"}, "geometry": {"type": "LineString", "coordinates": [[-105.0082907, 39.7451096], [-105.0081913, 39.7450237], [-105.0081259, 39.7450535], [-105.0081586, 39.7450972], [-105.0081856, 39.7450787], [-105.0082591, 39.7451327], [-105.0082907, 39.7451096]]}}, {"type": "Feature", "properties": {"natural": "water"}, "geometry": {"type": "LineString", "coordinates": [[-105.0050181, 39.7398317], [-105.0050139, 39.7398673], [-105.0050121, 39.7398769], [-105.0050077, 39.7398865], [-105.0050026, 39.7398932], [-105.0049921, 39.7398993], [-105.0049799, 39.7399019], [-105.0049634, 39.7399038], [-105.0049144, 39.7399053], [-105.0048926, 39.7399053], [-105.0048712, 39.7399123], [-105.0048567, 39.7399249], [-105.0048532, 39.739937], [-105.0048503, 39.7399528], [-105.0049264, 39.7399578], [-105.004974, 39.7399547], [-105.0050136, 39.7399423], [-105.0050411, 39.7399207], [-105.0050578, 39.7399006], [-105.0050652, 39.7398835], [-105.0050692, 39.7398706], [-105.0050706, 39.7398562], [-105.0050708, 39.7398301], [-105.0050454, 39.7398314], [-105.0050181, 39.7398317]]}}, {"type": "Feature", "properties": {"waterway": "drain"}, "geometry": {"type": "LineString", "coordinates": [[-105.0059894, 39.7362075], [-105.0060077, 39.7362444], [-105.0060182, 39.7362763], [-105.0060219, 39.7363192], [-105.0060202, 39.7366906], [-105.0060161, 39.7366994], [-105.0060327, 39.7367122]]}}, {"type": "Feature", "properties": {"natural": "water"}, "geometry": {"type": "LineString", "coordinates": [[-105.0060347, 39.7361474], [-105.0060263, 39.736142], [-105.0060151, 39.7361404], [-105.0060056, 39.7361441], [-105.0060016, 39.7361695], [-105.006004, 39.7361778], [-105.0060144, 39.736181], [-105.0060256, 39.7361797], [-105.0060327, 39.7361729], [-105.0060347, 39.7361474]]}}, {"type": "Feature", "properties": {"natural": "water"}, "geometry": {"type": "LineString", "coordinates": [[-105.0064984, 39.7370657], [-105.0064726, 39.7370659], [-105.0064254, 39.737074], [-105.0064063, 39.7370806], [-105.0063961, 39.7370895], [-105.0063955, 39.7370989], [-105.0064011, 39.7371078], [-105.0064123, 39.7371158], [-105.0064274, 39.7371185], [-105.0064445, 39.7371132], [-105.0064767, 39.737106], [-105.0064961, 39.7370991], [-105.0065077, 39.7370911], [-105.0065117, 39.7370806], [-105.00651, 39.7370706], [-105.0064984, 39.7370657]]}}]}