{
"type": "FeatureCollection",
"crs": { "type": "name", "properties": { "name": "urn:ogc:def:crs:OGC:1.3:CRS84" } },
"features": [
{ "type": "Feature", "properties": { "OBJECTID": 55, "NBHD_ID": 2, "NBHD_NAME": "Auraria", "TYPOLOGY": null, "NOTES": null, "GLOBALID": "e03bad7f-f2b5-49c1-aa53-b0d27a306a44", "Shape__Area": 17995319.082519531, "Shape__Length": 17704.84819617659 }, "geometry": { "type": "Polygon", "coordinates": [ [ [ -105.000421583231002, 39.745519884041599 ], [ -105.000414521080003, 39.745385669261402 ], [ -105.000411238816, 39.745347221801602 ], [ -105.000405311879007, 39.745180764994402 ], [ -105.000398950025996, 39.745075388730498 ], [ -105.000389081313998, 39.7449631344181 ], [ -105.000365394168995, 39.744793857181698 ], [ -105.000341728425994, 39.744621491742798 ], [ -105.000324891586999, 39.744488961373499 ], [ -105.000301595964004, 39.744264780445803 ], [ -105.000295926627004, 39.744062293593899 ], [ -105.000290273855001, 39.743857404367603 ], [ -105.000287292479001, 39.743776749530397 ], [ -105.000271044505993, 39.743686430042203 ], [ -105.000254002622, 39.743582724284899 ], [ -105.000219143945003, 39.7434840899355 ], [ -105.000184148867007, 39.743404671970303 ], [ -105.000135066072005, 39.743305976972998 ], [ -105.000096495733999, 39.743229288942601 ], [ -105.000044724215996, 39.743133671008401 ], [ -105.000009575188997, 39.743075871334199 ], [ -104.9999886186, 39.743022592733503 ], [ -104.999946589933003, 39.742932163778697 ], [ -104.999908117103004, 39.7428417497159 ], [ -104.999874224313004, 39.7427324814958 ], [ -104.999839425844996, 39.742625611641301 ], [ -104.999793861087994, 39.742532422031502 ], [ -104.999744992920995, 39.742403873319297 ], [ -104.999702925579001, 39.742318934298503 ], [ -104.999654567239006, 39.742243577280597 ], [ -104.999542335639006, 39.742024508286001 ], [ -104.999524818314001, 39.741987716139697 ], [ -104.999487062159005, 39.741921669225498 ], [ -104.999434344687003, 39.741834282913203 ], [ -104.999385206040998, 39.741743823116401 ], [ -104.999336145127003, 39.741642383004702 ], [ -104.999298524078995, 39.7415574627287 ], [ -104.999119465009997, 39.741235504842699 ], [ -104.999113338124999, 39.741222095909102 ], [ -104.999095774143001, 39.7411918229758 ], [ -104.999074691101995, 39.741156387973497 ], [ -104.999057186236001, 39.741117879666703 ], [ -104.999043197419994, 39.741084876938302 ], [ -104.999025729357996, 39.741041221344901 ], [ -104.998979970858002, 39.740975483498701 ], [ -104.998951798090999, 39.740936929952902 ], [ -104.998930734810997, 39.740898749798603 ], [ -104.998910619612005, 39.7408523377064 ], [ -104.998889754979999, 39.740786362294898 ], [ -104.998865390964994, 39.740712479681903 ], [ -104.998854995428999, 39.740674345392101 ], [ -104.998837549656002, 39.740627601274802 ], [ -104.998816544866003, 39.740581185171898 ], [ -104.998777889115999, 39.740516850088397 ], [ -104.998749753496, 39.740473149406903 ], [ -104.998694277979993, 39.740398790692502 ], [ -104.998623921369003, 39.740292112061603 ], [ -104.998613704608005, 39.740274472906897 ], [ -104.998566933180001, 39.740193717891898 ], [ -104.998911720186996, 39.740207919099902 ], [ -104.999066122729005, 39.740214331340297 ], [ -104.999969994775, 39.740208484519897 ], [ -105.000049587936999, 39.740207969136101 ], [ -105.000116937000996, 39.7402075330237 ], [ -105.000145847328, 39.740206879597103 ], [ -105.001569573799998, 39.740174679501401 ], [ -105.001724965050002, 39.740171164176999 ], [ -105.00282160754, 39.7401588464055 ], [ -105.003546923537002, 39.740150697964097 ], [ -105.004125826118994, 39.740149383324201 ], [ -105.004417590418001, 39.740165634759499 ], [ -105.004777404986996, 39.740189683203397 ], [ -105.005234368496005, 39.740209742159799 ], [ -105.005886946987999, 39.740238384861399 ], [ -105.006433308957995, 39.740262363305398 ], [ -105.009346658439, 39.740335011587703 ], [ -105.010866674241001, 39.740372886941202 ], [ -105.014577891667997, 39.740448344217803 ], [ -105.015322817910004, 39.740466436238002 ], [ -105.017385186303002, 39.740515535705597 ], [ -105.017329309291995, 39.740669214387999 ], [ -105.017219991066, 39.740923389338199 ], [ -105.017061721649, 39.741314625844403 ], [ -105.016593525397994, 39.7425593948333 ], [ -105.016491828599996, 39.742867818845397 ], [ -105.016439260919, 39.743013444661301 ], [ -105.016412176873999, 39.743073385924902 ], [ -105.016337402690993, 39.7432161754775 ], [ -105.016261337779994, 39.743389931410697 ], [ -105.016070035360002, 39.743826925518398 ], [ -105.015950316336998, 39.744040906776398 ], [ -105.015844939222006, 39.744237788449503 ], [ -105.015840201659998, 39.744250617097698 ], [ -105.015799640175004, 39.7443604524927 ], [ -105.015750508517002, 39.744523249920199 ], [ -105.015730831422005, 39.744669010931403 ], [ -105.015699507994, 39.744956447971099 ], [ -105.015678449584001, 39.745302263707202 ], [ -105.015630215670001, 39.745849743371302 ], [ -105.015621630878002, 39.746062809119401 ], [ -105.015619656542995, 39.746348651015701 ], [ -105.015618322142004, 39.746541842727098 ], [ -105.015609275621998, 39.746693137712697 ], [ -105.015593074110001, 39.746979264157098 ], [ -105.015575975995006, 39.747266416102001 ], [ -105.015556348439006, 39.747545774843402 ], [ -105.015543437106004, 39.747729543941198 ], [ -105.015475253806997, 39.748461559896 ], [ -105.015443920525001, 39.748750025858797 ], [ -105.015374265885995, 39.749180057535398 ], [ -105.015309203653004, 39.749460148556501 ], [ -105.015267475214998, 39.749580081435099 ], [ -105.015192523652999, 39.749747233154601 ], [ -105.015158304140996, 39.749809889946903 ], [ -105.015139405449005, 39.749842754977699 ], [ -105.015083828962005, 39.749908068952401 ], [ -105.014956766073993, 39.750024904875701 ], [ -105.014781535666998, 39.750164190537497 ], [ -105.014684997700002, 39.750238257465803 ], [ -105.014602805070993, 39.750295225714297 ], [ -105.014398479619004, 39.750398702517998 ], [ -105.013588126917, 39.750835625714501 ], [ -105.013498897744995, 39.7508812402045 ], [ -105.013439161392, 39.7509050140049 ], [ -105.013375834737005, 39.750933577470903 ], [ -105.013301860778995, 39.750959008303802 ], [ -105.013111945329001, 39.751035432736899 ], [ -105.012963839394999, 39.751108941770902 ], [ -105.012773584863993, 39.7512340929472 ], [ -105.012527907027007, 39.751401908393099 ], [ -105.012233681471002, 39.75164638935 ], [ -105.012054584168993, 39.751828892526902 ], [ -105.011677977687, 39.752156074341102 ], [ -105.011607139714002, 39.752241569490202 ], [ -105.011536270752998, 39.752331525730298 ], [ -105.011487839745001, 39.752391377088202 ], [ -105.011394754655996, 39.752479524702501 ], [ -105.011319590056999, 39.752547844255503 ], [ -105.011185462808996, 39.752656067854502 ], [ -105.010824193285998, 39.752950367559201 ], [ -105.010652601988994, 39.753075592424899 ], [ -105.010523000288003, 39.753172167006099 ], [ -105.010269197484007, 39.753355729081001 ], [ -105.010169156738996, 39.753420855656302 ], [ -105.010020131725, 39.753497445495299 ], [ -105.009920148171005, 39.753554336319397 ], [ -105.009763609014996, 39.753688201649403 ], [ -105.009489391760994, 39.753927001933299 ], [ -105.009397712131005, 39.7540068419368 ], [ -105.009356491976007, 39.754052309593199 ], [ -105.009330425743997, 39.75409235043 ], [ -105.009271142033001, 39.754177892099101 ], [ -105.009154611656001, 39.754311923405403 ], [ -105.009069623876002, 39.754385690706599 ], [ -105.009006163066999, 39.754432781585997 ], [ -105.00871932583, 39.754634389922202 ], [ -105.008629930016994, 39.754702647918698 ], [ -105.008578157208007, 39.754731257020303 ], [ -105.008540752827003, 39.754739679737497 ], [ -105.008436662232995, 39.7547478239482 ], [ -105.008344130202005, 39.754756016350697 ], [ -105.008270251520997, 39.754767032005098 ], [ -105.008217839531994, 39.754782702607699 ], [ -105.008186492834994, 39.754792075557297 ], [ -105.008186106126999, 39.754782670634199 ], [ -105.008183453775999, 39.754718284073398 ], [ -105.008173282485004, 39.754647208326098 ], [ -105.008166876809995, 39.754546293631698 ], [ -105.008132213308002, 39.754417465307498 ], [ -105.008107938329005, 39.754328829483597 ], [ -105.008038885271006, 39.754159021539301 ], [ -105.007983111594996, 39.753997504982202 ], [ -105.007948504344, 39.7538607844089 ], [ -105.007917617717993, 39.7537007442385 ], [ -105.007889721569001, 39.753621358603297 ], [ -105.007859023197994, 39.753561178138298 ], [ -105.007827380370003, 39.7535088858656 ], [ -105.007770916373005, 39.753445852033103 ], [ -105.007609183279996, 39.7533058541987 ], [ -105.007566716971994, 39.753275478860502 ], [ -105.007510137908994, 39.753228915920502 ], [ -105.007387192156003, 39.753136778863698 ], [ -105.007257256759004, 39.753027110829102 ], [ -105.007115804159994, 39.752911561054297 ], [ -105.006968164205006, 39.752790838222502 ], [ -105.006763833237997, 39.752639679350402 ], [ -105.006577179494002, 39.752503693338802 ], [ -105.006503787990994, 39.752445735713103 ], [ -105.006445657634998, 39.752401725391302 ], [ -105.006355203257002, 39.752333243250703 ], [ -105.006179230239994, 39.752195928987497 ], [ -105.005928997276996, 39.751997906661003 ], [ -105.005799037309004, 39.751892355442699 ], [ -105.005707961425998, 39.751820596469798 ], [ -105.005587714862997, 39.7517246935816 ], [ -105.005411744878998, 39.751587377738304 ], [ -105.005056184835993, 39.751321996070303 ], [ -105.004897863156998, 39.7512039703631 ], [ -105.004774064578996, 39.751107708646003 ], [ -105.004608691787993, 39.7509810742064 ], [ -105.004443355969997, 39.750849292214298 ], [ -105.003950667913998, 39.750487931859901 ], [ -105.003784367715994, 39.7503671258279 ], [ -105.003608520743995, 39.750213336381201 ], [ -105.003404437813998, 39.750029229657599 ], [ -105.003274449358997, 39.749928822239902 ], [ -105.003214299595001, 39.749884987681 ], [ -105.003055928589006, 39.749774852015101 ], [ -105.002940133977006, 39.749678965267897 ], [ -105.002785378720006, 39.749560608755303 ], [ -105.002654415015996, 39.749472550245997 ], [ -105.002517227476005, 39.749384465679498 ], [ -105.002291636541997, 39.749224973156899 ], [ -105.002193509207004, 39.749145631898102 ], [ -105.002034310829998, 39.749027255770898 ], [ -105.001932571187993, 39.7489557918217 ], [ -105.001795444337006, 39.7488594707009 ], [ -105.001714095736006, 39.748796328469297 ], [ -105.001524227187005, 39.748615023680699 ], [ -105.001467773054998, 39.748551986911899 ], [ -105.001405270999001, 39.748464216953799 ], [ -105.001306917989993, 39.748291878838998 ], [ -105.001205570939007, 39.748165510469299 ], [ -105.00113881723, 39.748050612969202 ], [ -105.001040845752996, 39.747824743381301 ], [ -105.001017173177999, 39.747777973775598 ], [ -105.000953800427993, 39.747687797781197 ], [ -105.000918687443999, 39.7476245080924 ], [ -105.000866310060999, 39.747526642079002 ], [ -105.000866042319004, 39.747526141789002 ], [ -105.000807486469995, 39.747383826340602 ], [ -105.000769049693005, 39.747287922476602 ], [ -105.000737597946994, 39.747209892429197 ], [ -105.000709517576993, 39.747157956574299 ], [ -105.000667331312997, 39.747089145985399 ], [ -105.000626051335004, 39.747017937149998 ], [ -105.000594356277006, 39.746974221926301 ], [ -105.000548513712005, 39.746919465249903 ], [ -105.000471661033998, 39.746724912086101 ], [ -105.000448240983999, 39.746642798233601 ], [ -105.000423912146005, 39.746563425515603 ], [ -105.000413808507005, 39.746484113329601 ], [ -105.000414177634994, 39.746432298207502 ], [ -105.000414478318007, 39.746390090895602 ], [ -105.000442681237999, 39.7459255757893 ], [ -105.000436446373001, 39.745802355736103 ], [ -105.000421583231002, 39.745519884041599 ] ] ] } },
{ "type": "Feature", "properties": { "OBJECTID": 72, "NBHD_ID": 16, "NBHD_NAME": "Civic Center", "TYPOLOGY": null, "NOTES": null, "GLOBALID": "d412399d-56d2-4e94-ac0e-bbe35e28e1d0", "Shape__Area": 8472228.0913085938, "Shape__Length": 13890.045504807424 }, "geometry": { "type": "Polygon", "coordinates": [ [ [ -104.987388831494997, 39.740107110254101 ], [ -104.987390687512004, 39.740013019694103 ], [ -104.987394648638997, 39.739614721410398 ], [ -104.987413072015997, 39.738431934279603 ], [ -104.987393518605003, 39.736850230338298 ], [ -104.987400692912004, 39.735260406321899 ], [ -104.987415396873004, 39.733856606250903 ], [ -104.987402860116006, 39.732044670543203 ], [ -104.987402930399, 39.730453783303801 ], [ -104.987403972278003, 39.729094875311297 ], [ -104.987415487434006, 39.7272758350611 ], [ -104.987423599543007, 39.726944063626902 ], [ -104.987531438614994, 39.727002808607402 ], [ -104.987774711591001, 39.727135331140197 ], [ -104.988077564486005, 39.727289698596302 ], [ -104.988313935681006, 39.7274194120168 ], [ -104.988543119707998, 39.727559731165897 ], [ -104.988687217500001, 39.727667080523901 ], [ -104.988736833218994, 39.727688915138501 ], [ -104.988792727743004, 39.727702884477402 ], [ -104.988892014008997, 39.7277390044245 ], [ -104.988952215571004, 39.727771865969999 ], [ -104.989064366722005, 39.727872213028199 ], [ -104.989250851272999, 39.728017835963499 ], [ -104.989367617400006, 39.728094867624201 ], [ -104.989465778527006, 39.728163582419903 ], [ -104.989547172081998, 39.728215752707897 ], [ -104.989599322510003, 39.728255785362101 ], [ -104.989648718968994, 39.728307816762801 ], [ -104.989708818699, 39.728354747251402 ], [ -104.989799790342005, 39.728434411608397 ], [ -104.989863328184001, 39.728497485269799 ], [ -104.989926649571998, 39.728590413206099 ], [ -104.989985681359002, 39.728662046249902 ], [ -104.990035098866997, 39.728711332349398 ], [ -104.990105747845007, 39.728774436895101 ], [ -104.990171912772993, 39.728843012405697 ], [ -104.990221347737005, 39.728889896204898 ], [ -104.990414541497003, 39.729091481622298 ], [ -104.990463919728995, 39.729146257750401 ], [ -104.990527319240996, 39.729228547521402 ], [ -104.990593285971002, 39.729324575070002 ], [ -104.990677741384005, 39.729445046312001 ], [ -104.990747203916996, 39.729549324304799 ], [ -104.990845911022006, 39.729665739722599 ], [ -104.990919818356005, 39.729770036837998 ], [ -104.991035184691995, 39.7299180944838 ], [ -104.991116123710995, 39.730033403108003 ], [ -104.991249267743996, 39.730181537466798 ], [ -104.991323248645003, 39.730275883230803 ], [ -104.991403378827997, 39.730380206866997 ], [ -104.991539860787, 39.730558553603998 ], [ -104.991631529657994, 39.730665329026699 ], [ -104.991732638003, 39.730818815158003 ], [ -104.991806567501001, 39.7309203663389 ], [ -104.991859374159006, 39.730993001159199 ], [ -104.991935893401006, 39.731105201529502 ], [ -104.992013180274995, 39.731234219940802 ], [ -104.992083595292996, 39.731330265571302 ], [ -104.992132007801999, 39.7313960180431 ], [ -104.992213002499, 39.731504119504798 ], [ -104.992335425774996, 39.731660442466598 ], [ -104.992462194422004, 39.731830509615499 ], [ -104.992580924699993, 39.732006033033699 ], [ -104.992668932007007, 39.732127891077702 ], [ -104.992833648536006, 39.732336212613397 ], [ -104.992948944011999, 39.732495249117797 ], [ -104.993033364927996, 39.732621552356903 ], [ -104.993124080483, 39.732737930862797 ], [ -104.993247317465006, 39.732905237304998 ], [ -104.993249267403002, 39.732908037090397 ], [ -104.993327377124999, 39.733020197337602 ], [ -104.993425941964006, 39.733157542182298 ], [ -104.993502506303997, 39.733264251188203 ], [ -104.993537667612003, 39.733318964568497 ], [ -104.993597469574993, 39.733408100280599 ], [ -104.993734061818003, 39.733572718024803 ], [ -104.993793993284001, 39.733644010138697 ], [ -104.993923121470004, 39.733857667319 ], [ -104.993975932273003, 39.733930300859399 ], [ -104.994035705610003, 39.7340235542231 ], [ -104.994122799604, 39.734149524710702 ], [ -104.994217930873006, 39.734270382424903 ], [ -104.994305144511003, 39.734379882045403 ], [ -104.994407467076002, 39.7344897894951 ], [ -104.994452387544001, 39.7345472898701 ], [ -104.994494562577003, 39.734615759687102 ], [ -104.994550840765996, 39.734700761903497 ], [ -104.994719015935999, 39.734924194484798 ], [ -104.994800005816998, 39.735034009703902 ], [ -104.994887201284001, 39.735146253989299 ], [ -104.994978760178995, 39.735269840909901 ], [ -104.995048333691003, 39.735360390351801 ], [ -104.995182200119999, 39.735534259836399 ], [ -104.995297426899995, 39.735704274964597 ], [ -104.995406629756005, 39.7358468106586 ], [ -104.995497281905003, 39.735973138660398 ], [ -104.995599521965005, 39.736095055315701 ], [ -104.995654894045003, 39.736182798224398 ], [ -104.995728679707, 39.736305964994301 ], [ -104.995808628975993, 39.736437394509103 ], [ -104.995879113349005, 39.736525202103103 ], [ -104.995949657344994, 39.736604773871399 ], [ -104.996299953266004, 39.737092872894401 ], [ -104.996391460001007, 39.737224351038797 ], [ -104.996482118101, 39.7373503352527 ], [ -104.996678387016999, 39.737624672217002 ], [ -104.996860690077995, 39.737863260874697 ], [ -104.996983154442006, 39.738016832657799 ], [ -104.997040098016996, 39.738085032101402 ], [ -104.997064242739, 39.738113950266097 ], [ -104.997162881875994, 39.7382430564017 ], [ -104.997217935622004, 39.738375750458601 ], [ -104.997397195721007, 39.738543291487602 ], [ -104.997464345118999, 39.7386008857505 ], [ -104.997492515610006, 39.738639439683297 ], [ -104.997545442135007, 39.738696973208199 ], [ -104.99758683156, 39.738751711989003 ], [ -104.997636123616005, 39.738820211138297 ], [ -104.997660623314005, 39.738874877832799 ], [ -104.997709777908995, 39.738962592921098 ], [ -104.997761639001993, 39.739044828969902 ], [ -104.997800359541003, 39.7390998999036 ], [ -104.997870986663997, 39.739168489544497 ], [ -104.997906272318005, 39.739206730804803 ], [ -104.997941439517007, 39.739261443098997 ], [ -104.997968545008007, 39.7393246997879 ], [ -104.997996483509993, 39.739395853073098 ], [ -104.998021131051004, 39.739429930847798 ], [ -104.998066848353005, 39.739501159352599 ], [ -104.998116141663999, 39.739569658283003 ], [ -104.998150555383006, 39.739605493461397 ], [ -104.998196528525, 39.739641034998797 ], [ -104.998263657017006, 39.739701717019599 ], [ -104.998313029211005, 39.739759235015498 ], [ -104.998350922998995, 39.739805722824102 ], [ -104.998379016184998, 39.739855257174703 ], [ -104.998410530986007, 39.739923679780503 ], [ -104.998566933180001, 39.740193717891898 ], [ -104.998253965336005, 39.740180824563502 ], [ -104.998126304387, 39.740179107349398 ], [ -104.996936721, 39.740163838488698 ], [ -104.996512580455004, 39.740158366680099 ], [ -104.996441867084002, 39.740157507929197 ], [ -104.995269909339996, 39.740147620381499 ], [ -104.994360104456007, 39.740139746664802 ], [ -104.993534072478994, 39.740135360004899 ], [ -104.992919582081001, 39.7401320897524 ], [ -104.992504308079006, 39.740129878689103 ], [ -104.991655142152993, 39.740125200952697 ], [ -104.990423449976007, 39.740116850319403 ], [ -104.990076976194004, 39.740111876957101 ], [ -104.989940691428998, 39.740122552246902 ], [ -104.989818775765002, 39.740163333051903 ], [ -104.989677158958003, 39.740237833303901 ], [ -104.989554591434995, 39.740368745289501 ], [ -104.989427402334002, 39.740465839509497 ], [ -104.989305185017002, 39.740547931600602 ], [ -104.989105301859993, 39.740607154606302 ], [ -104.988939662367002, 39.740640236538802 ], [ -104.988754836530006, 39.740635676065999 ], [ -104.988534009080993, 39.740565238738 ], [ -104.988532017634995, 39.740564089189597 ], [ -104.988403211001994, 39.740489559390397 ], [ -104.988282339706004, 39.740387633849501 ], [ -104.988122549523993, 39.740285535124599 ], [ -104.988102215588, 39.740273620942801 ], [ -104.987967544669999, 39.740194726458697 ], [ -104.987919092490003, 39.740168226201497 ], [ -104.987846263159, 39.740149131362799 ], [ -104.987768566797001, 39.740130015894898 ], [ -104.987510913158999, 39.740106362148701 ], [ -104.987388831494997, 39.740107110254101 ] ] ] } },
{ "type": "Feature", "properties": { "OBJECTID": 73, "NBHD_ID": 10, "NBHD_NAME": "CBD", "TYPOLOGY": null, "NOTES": null, "GLOBALID": "3923a2e5-9bba-4091-937b-4868902696f6", "Shape__Area": 12018056.0625, "Shape__Length": 13717.962639314996 }, "geometry": { "type": "Polygon", "coordinates": [ [ [ -104.987400279880006, 39.747358465167999 ], [ -104.987396865761994, 39.746974097975098 ], [ -104.987400795913004, 39.7466796858671 ], [ -104.987407911700998, 39.746192776409501 ], [ -104.987407765558004, 39.745932462663397 ], [ -104.987407504977, 39.745467357406902 ], [ -104.987407278272997, 39.745063098288703 ], [ -104.987419619209007, 39.744834265643298 ], [ -104.987376177189006, 39.743358154163502 ], [ -104.987386673730995, 39.743059563929201 ], [ -104.987416583392999, 39.742208750728203 ], [ -104.987411415935995, 39.741953560008596 ], [ -104.987406131770996, 39.741692595388997 ], [ -104.987397073859995, 39.741472248198697 ], [ -104.987383821612994, 39.740852789919202 ], [ -104.987388831494997, 39.740107110254101 ], [ -104.987510913158999, 39.740106362148701 ], [ -104.987768566797001, 39.740130015894898 ], [ -104.987846263159, 39.740149131362799 ], [ -104.987919092490003, 39.740168226201497 ], [ -104.987967544669999, 39.740194726458697 ], [ -104.988102215588, 39.740273620942801 ], [ -104.988122549523993, 39.740285535124599 ], [ -104.988282339706004, 39.740387633849501 ], [ -104.988403211001994, 39.740489559390397 ], [ -104.988532017634995, 39.740564089189597 ], [ -104.988534009080993, 39.740565238738 ], [ -104.988754836530006, 39.740635676065999 ], [ -104.988939662367002, 39.740640236538802 ], [ -104.989105301859993, 39.740607154606302 ], [ -104.989305185017002, 39.740547931600602 ], [ -104.989427402334002, 39.740465839509497 ], [ -104.989554591434995, 39.740368745289501 ], [ -104.989677158958003, 39.740237833303901 ], [ -104.989818775765002, 39.740163333051903 ], [ -104.989940691428998, 39.740122552246902 ], [ -104.990076976194004, 39.740111876957101 ], [ -104.990423449976007, 39.740116850319403 ], [ -104.991655142152993, 39.740125200952697 ], [ -104.992504308079006, 39.740129878689103 ], [ -104.992919582081001, 39.7401320897524 ], [ -104.993534072478994, 39.740135360004899 ], [ -104.994360104456007, 39.740139746664802 ], [ -104.995269909339996, 39.740147620381499 ], [ -104.996441867084002, 39.740157507929197 ], [ -104.996512580455004, 39.740158366680099 ], [ -104.996936721, 39.740163838488698 ], [ -104.998126304387, 39.740179107349398 ], [ -104.998253965336005, 39.740180824563502 ], [ -104.998566933180001, 39.740193717891898 ], [ -104.998613704608005, 39.740274472906897 ], [ -104.998623921369003, 39.740292112061603 ], [ -104.998694277979993, 39.740398790692502 ], [ -104.998749753496, 39.740473149406903 ], [ -104.998777889115999, 39.740516850088397 ], [ -104.998816544866003, 39.740581185171898 ], [ -104.998837549656002, 39.740627601274802 ], [ -104.998854995428999, 39.740674345392101 ], [ -104.998865390964994, 39.740712479681903 ], [ -104.998889754979999, 39.740786362294898 ], [ -104.998910619612005, 39.7408523377064 ], [ -104.998930734810997, 39.740898749798603 ], [ -104.998951798090999, 39.740936929952902 ], [ -104.998979970858002, 39.740975483498701 ], [ -104.999025729357996, 39.741041221344901 ], [ -104.999043197419994, 39.741084876938302 ], [ -104.999057186236001, 39.741117879666703 ], [ -104.999074691101995, 39.741156387973497 ], [ -104.999095774143001, 39.7411918229758 ], [ -104.999113338124999, 39.741222095909102 ], [ -104.999119465009997, 39.741235504842699 ], [ -104.999298524078995, 39.7415574627287 ], [ -104.999336145127003, 39.741642383004702 ], [ -104.999385206040998, 39.741743823116401 ], [ -104.999434344687003, 39.741834282913203 ], [ -104.999487062159005, 39.741921669225498 ], [ -104.999524818314001, 39.741987716139697 ], [ -104.999542335639006, 39.742024508286001 ], [ -104.999654567239006, 39.742243577280597 ], [ -104.999702925579001, 39.742318934298503 ], [ -104.999744992920995, 39.742403873319297 ], [ -104.999793861087994, 39.742532422031502 ], [ -104.999839425844996, 39.742625611641301 ], [ -104.999874224313004, 39.7427324814958 ], [ -104.999908117103004, 39.7428417497159 ], [ -104.999946589933003, 39.742932163778697 ], [ -104.9999886186, 39.743022592733503 ], [ -105.000009575188997, 39.743075871334199 ], [ -105.000044724215996, 39.743133671008401 ], [ -105.000096495733999, 39.743229288942601 ], [ -105.000135066072005, 39.743305976972998 ], [ -105.000184148867007, 39.743404671970303 ], [ -105.000219143945003, 39.7434840899355 ], [ -105.000254002622, 39.743582724284899 ], [ -105.000271044505993, 39.743686430042203 ], [ -105.000287292479001, 39.743776749530397 ], [ -105.000290273855001, 39.743857404367603 ], [ -105.000295926627004, 39.744062293593899 ], [ -105.000301595964004, 39.744264780445803 ], [ -105.000324891586999, 39.744488961373499 ], [ -105.000341728425994, 39.744621491742798 ], [ -105.000365394168995, 39.744793857181698 ], [ -105.000389081313998, 39.7449631344181 ], [ -105.000398950025996, 39.745075388730498 ], [ -105.000405311879007, 39.745180764994402 ], [ -105.000411238816, 39.745347221801602 ], [ -105.000414521080003, 39.745385669261402 ], [ -105.000421583231002, 39.745519884041599 ], [ -105.000148736019995, 39.745753778275599 ], [ -104.998958874989, 39.746665978273903 ], [ -104.997748365820001, 39.7476017552709 ], [ -104.996552990165995, 39.748530378599199 ], [ -104.995333576622002, 39.749458886376203 ], [ -104.994127316965006, 39.750408370285797 ], [ -104.992928269052996, 39.751339685705801 ], [ -104.991690824996994, 39.752289010152097 ], [ -104.990830758176998, 39.751590399738802 ], [ -104.989975676103001, 39.750942248525199 ], [ -104.989101339941996, 39.750254201211597 ], [ -104.988670733982005, 39.749925645506401 ], [ -104.988226867915003, 39.749587079234402 ], [ -104.987525738607005, 39.749048359740399 ], [ -104.987396921799004, 39.748912594565503 ], [ -104.987398472029994, 39.748213933010199 ], [ -104.987400279880006, 39.747358465167999 ] ] ] } },
{ "type": "Feature", "properties": { "OBJECTID": 74, "NBHD_ID": 63, "NBHD_NAME": "Union Station", "TYPOLOGY": null, "NOTES": null, "GLOBALID": "4c20fa4b-f8c3-413e-9940-1127e1713a8e", "Shape__Area": 12230779.267578125, "Shape__Length": 14577.468415695766 }, "geometry": { "type": "Polygon", "coordinates": [ [ [ -104.991690824996994, 39.752289010152097 ], [ -104.992928269052996, 39.751339685705801 ], [ -104.994127316965006, 39.750408370285797 ], [ -104.995333576622002, 39.749458886376203 ], [ -104.996552990165995, 39.748530378599199 ], [ -104.997748365820001, 39.7476017552709 ], [ -104.998958874989, 39.746665978273903 ], [ -105.000148736019995, 39.745753778275599 ], [ -105.000421583231002, 39.745519884041599 ], [ -105.000436446373001, 39.745802355736103 ], [ -105.000442681237999, 39.7459255757893 ], [ -105.000414478318007, 39.746390090895602 ], [ -105.000414177634994, 39.746432298207502 ], [ -105.000413808507005, 39.746484113329601 ], [ -105.000423912146005, 39.746563425515603 ], [ -105.000448240983999, 39.746642798233601 ], [ -105.000471661033998, 39.746724912086101 ], [ -105.000548513712005, 39.746919465249903 ], [ -105.000594356277006, 39.746974221926301 ], [ -105.000626051335004, 39.747017937149998 ], [ -105.000667331312997, 39.747089145985399 ], [ -105.000709517576993, 39.747157956574299 ], [ -105.000737597946994, 39.747209892429197 ], [ -105.000769049693005, 39.747287922476602 ], [ -105.000807486469995, 39.747383826340602 ], [ -105.000866042319004, 39.747526141789002 ], [ -105.000866310060999, 39.747526642079002 ], [ -105.000918687443999, 39.7476245080924 ], [ -105.000953800427993, 39.747687797781197 ], [ -105.001017173177999, 39.747777973775598 ], [ -105.001040845752996, 39.747824743381301 ], [ -105.00113881723, 39.748050612969202 ], [ -105.001205570939007, 39.748165510469299 ], [ -105.001306917989993, 39.748291878838998 ], [ -105.001405270999001, 39.748464216953799 ], [ -105.001467773054998, 39.748551986911899 ], [ -105.001524227187005, 39.748615023680699 ], [ -105.001714095736006, 39.748796328469297 ], [ -105.001795444337006, 39.7488594707009 ], [ -105.001932571187993, 39.7489557918217 ], [ -105.002034310829998, 39.749027255770898 ], [ -105.002193509207004, 39.749145631898102 ], [ -105.002291636541997, 39.749224973156899 ], [ -105.002517227476005, 39.749384465679498 ], [ -105.002654415015996, 39.749472550245997 ], [ -105.002785378720006, 39.749560608755303 ], [ -105.002940133977006, 39.749678965267897 ], [ -105.003055928589006, 39.749774852015101 ], [ -105.003214299595001, 39.749884987681 ], [ -105.003274449358997, 39.749928822239902 ], [ -105.003404437813998, 39.750029229657599 ], [ -105.003608520743995, 39.750213336381201 ], [ -105.003784367715994, 39.7503671258279 ], [ -105.003950667913998, 39.750487931859901 ], [ -105.004443355969997, 39.750849292214298 ], [ -105.004608691787993, 39.7509810742064 ], [ -105.004774064578996, 39.751107708646003 ], [ -105.004897863156998, 39.7512039703631 ], [ -105.005056184835993, 39.751321996070303 ], [ -105.005411744878998, 39.751587377738304 ], [ -105.005587714862997, 39.7517246935816 ], [ -105.005707961425998, 39.751820596469798 ], [ -105.005799037309004, 39.751892355442699 ], [ -105.005928997276996, 39.751997906661003 ], [ -105.006179230239994, 39.752195928987497 ], [ -105.006355203257002, 39.752333243250703 ], [ -105.006445657634998, 39.752401725391302 ], [ -105.006503787990994, 39.752445735713103 ], [ -105.006577179494002, 39.752503693338802 ], [ -105.006763833237997, 39.752639679350402 ], [ -105.006968164205006, 39.752790838222502 ], [ -105.007115804159994, 39.752911561054297 ], [ -105.007257256759004, 39.753027110829102 ], [ -105.007387192156003, 39.753136778863698 ], [ -105.007510137908994, 39.753228915920502 ], [ -105.007566716971994, 39.753275478860502 ], [ -105.007609183279996, 39.7533058541987 ], [ -105.007770916373005, 39.753445852033103 ], [ -105.007827380370003, 39.7535088858656 ], [ -105.007859023197994, 39.753561178138298 ], [ -105.007889721569001, 39.753621358603297 ], [ -105.007917617717993, 39.7537007442385 ], [ -105.007948504344, 39.7538607844089 ], [ -105.007983111594996, 39.753997504982202 ], [ -105.008038885271006, 39.754159021539301 ], [ -105.008107938329005, 39.754328829483597 ], [ -105.008132213308002, 39.754417465307498 ], [ -105.008166876809995, 39.754546293631698 ], [ -105.008173282485004, 39.754647208326098 ], [ -105.008183453775999, 39.754718284073398 ], [ -105.008186106126999, 39.754782670634199 ], [ -105.008186492834994, 39.754792075557297 ], [ -105.007583783117994, 39.755403461593701 ], [ -105.007154438927998, 39.7558906620662 ], [ -105.007023515865001, 39.756047279104997 ], [ -105.006837121199993, 39.7562523919486 ], [ -105.006747400183002, 39.756366286780398 ], [ -105.006645936376003, 39.756506212370901 ], [ -105.006597510383997, 39.756564345905701 ], [ -105.006507808419002, 39.756675495435601 ], [ -105.006440796581998, 39.756752171538302 ], [ -105.006328523326999, 39.756880637247399 ], [ -105.006175183677996, 39.757063239323799 ], [ -105.006115944363998, 39.757141573175701 ], [ -105.006033433656995, 39.757241428422397 ], [ -105.005943770773996, 39.757346744215504 ], [ -105.005869242990002, 39.757449378037997 ], [ -105.005838587403005, 39.757509301815098 ], [ -105.005827392399993, 39.757583719427799 ], [ -105.00581169342, 39.757666353892603 ], [ -105.005796061926006, 39.757739380728601 ], [ -105.005755383196004, 39.757833577897003 ], [ -105.005698539600004, 39.757950354915003 ], [ -105.005653574161002, 39.758021886139097 ], [ -105.005612308606999, 39.758073185744799 ], [ -105.005496716793999, 39.758198295423803 ], [ -105.005157239197999, 39.758547230326002 ], [ -105.005074926834993, 39.7586186041 ], [ -105.004866531912, 39.758789305426802 ], [ -105.004728707582004, 39.758914320553401 ], [ -105.004538012487004, 39.759096763558901 ], [ -105.004422235169002, 39.759247607420697 ], [ -105.004294713361006, 39.759424482079901 ], [ -105.004249757875002, 39.759494296411297 ], [ -105.004186804514006, 39.759594232667801 ], [ -105.004114901042001, 39.7597023669924 ], [ -105.004025229703998, 39.759808024089303 ], [ -105.003917938464994, 39.7598902724719 ], [ -105.003816910734997, 39.759967056635702 ], [ -105.003716759837005, 39.760045560325402 ], [ -105.003586348282994, 39.760127710717498 ], [ -105.003430066700005, 39.760221419422002 ], [ -105.003168867382996, 39.760406040237299 ], [ -105.001893606772001, 39.7597612722439 ], [ -105.001778196670003, 39.759671566884599 ], [ -105.001330647518003, 39.759458287853803 ], [ -105.000825549723004, 39.759210104080402 ], [ -105.000104374849002, 39.758836778656601 ], [ -104.999830776617998, 39.758672274055698 ], [ -104.999547640586997, 39.758473755867001 ], [ -104.998574674099004, 39.757749330974903 ], [ -104.997377530666995, 39.756764447504899 ], [ -104.997019222015993, 39.756469661337803 ], [ -104.996118952421995, 39.755728978181402 ], [ -104.995147916449994, 39.754993550949798 ], [ -104.994701297971005, 39.754658086315999 ], [ -104.994272374385005, 39.754335393058199 ], [ -104.993827678442997, 39.753981059667097 ], [ -104.993418351848007, 39.753654672641503 ], [ -104.992992432934003, 39.753287033383799 ], [ -104.992597448943997, 39.752945606244097 ], [ -104.992143693171002, 39.752616964111098 ], [ -104.991690824996994, 39.752289010152097 ] ] ] } }
]
}
