{
"type": "FeatureCollection",
"crs": { "type": "name", "properties": { "name": "urn:ogc:def:crs:OGC:1.3:CRS84" } },
"features": [
{ "type": "Feature", "properties": { "name": "Downtown Core", "neighborhoods": "Auraria, CBD, Civic Center, Union Station" }, "geometry": { "type": "Polygon", "coordinates": [ [ [ -104.987394648638997, 39.739614721410398 ], [ -104.987413072015997, 39.738431934279603 ], [ -104.987393518605003, 39.736850230338298 ], [ -104.987400692912004, 39.735260406321899 ], [ -104.987415396873004, 39.733856606250903 ], [ -104.987402860116006, 39.732044670543203 ], [ -104.987402930399, 39.730453783303801 ], [ -104.987403972278003, 39.729094875311297 ], [ -104.987415487434006, 39.7272758350611 ], [ -104.987423599543007, 39.726944063626902 ], [ -104.987531438614994, 39.727002808607402 ], [ -104.987774711591001, 39.727135331140197 ], [ -104.988077564486005, 39.727289698596302 ], [ -104.988313935681006, 39.7274194120168 ], [ -104.988543119707998, 39.727559731165897 ], [ -104.988687217500001, 39.727667080523901 ], [ -104.988736833218994, 39.727688915138501 ], [ -104.988792727743004, 39.727702884477402 ], [ -104.988892014008997, 39.7277390044245 ], [ -104.988952215571004, 39.727771865969999 ], [ -104.989064366722005, 39.727872213028199 ], [ -104.989250851272999, 39.728017835963499 ], [ -104.989367617400006, 39.728094867624201 ], [ -104.989465778527006, 39.728163582419903 ], [ -104.989547172081998, 39.728215752707897 ], [ -104.989599322510003, 39.728255785362101 ], [ -104.989648718968994, 39.728307816762801 ], [ -104.989708818699, 39.728354747251402 ], [ -104.989799790342005, 39.728434411608397 ], [ -104.989863328184001, 39.728497485269799 ], [ -104.989926649571998, 39.728590413206099 ], [ -104.989985681359002, 39.728662046249902 ], [ -104.990035098866997, 39.728711332349398 ], [ -104.990105747845007, 39.728774436895101 ], [ -104.990171912772993, 39.728843012405697 ], [ -104.990221347737005, 39.728889896204898 ], [ -104.990414541497003, 39.729091481622298 ], [ -104.990463919728995, 39.729146257750401 ], [ -104.990527319240996, 39.729228547521402 ], [ -104.990593285971002, 39.729324575070002 ], [ -104.990677741384005, 39.729445046312001 ], [ -104.990747203916996, 39.729549324304799 ], [ -104.990845911022006, 39.729665739722599 ], [ -104.990919818356005, 39.729770036837998 ], [ -104.991035184691995, 39.7299180944838 ], [ -104.991116123710995, 39.730033403108003 ], [ -104.991249267743996, 39.730181537466798 ], [ -104.991323248645003, 39.730275883230803 ], [ -104.991403378827997, 39.730380206866997 ], [ -104.991539860787, 39.730558553603998 ], [ -104.991631529657994, 39.730665329026699 ], [ -104.991732638003, 39.730818815158003 ], [ -104.991806567501001, 39.7309203663389 ], [ -104.991859374159006, 39.730993001159199 ], [ -104.991935893401006, 39.731105201529502 ], [ -104.992013180274995, 39.731234219940802 ], [ -104.992083595292996, 39.731330265571302 ], [ -104.992132007801999, 39.7313960180431 ], [ -104.992213002499, 39.731504119504798 ], [ -104.992335425774996, 39.731660442466598 ], [ -104.992462194422004, 39.731830509615499 ], [ -104.992580924699993, 39.732006033033699 ], [ -104.992668932007007, 39.732127891077702 ], [ -104.992833648536006, 39.732336212613397 ], [ -104.992948944011999, 39.732495249117797 ], [ -104.993033364927996, 39.732621552356903 ], [ -104.993124080483, 39.732737930862797 ], [ -104.993247317465006, 39.732905237304998 ], [ -104.993249267403002, 39.732908037090397 ], [ -104.993327377124999, 39.733020197337602 ], [ -104.993425941964006, 39.733157542182298 ], [ -104.993502506303997, 39.733264251188203 ], [ -104.993537667612003, 39.733318964568497 ], [ -104.993597469574993, 39.733408100280599 ], [ -104.993734061818003, 39.733572718024803 ], [ -104.993793993284001, 39.733644010138697 ], [ -104.993923121470004, 39.733857667319 ], [ -104.993975932273003, 39.733930300859399 ], [ -104.994035705610003, 39.7340235542231 ], [ -104.994122799604, 39.734149524710702 ], [ -104.994217930873006, 39.734270382424903 ], [ -104.994305144511003, 39.734379882045403 ], [ -104.994407467076002, 39.7344897894951 ], [ -104.994452387544001, 39.7345472898701 ], [ -104.994494562577003, 39.734615759687102 ], [ -104.994550840765996, 39.734700761903497 ], [ -104.994719015935999, 39.734924194484798 ], [ -104.994800005816998, 39.735034009703902 ], [ -104.994887201284001, 39.735146253989299 ], [ -104.994978760178995, 39.735269840909901 ], [ -104.995048333691003, 39.735360390351801 ], [ -104.995182200119999, 39.735534259836399 ], [ -104.995297426899995, 39.735704274964597 ], [ -104.995406629756005, 39.7358468106586 ], [ -104.995497281905003, 39.735973138660398 ], [ -104.995599521965005, 39.736095055315701 ], [ -104.995654894045003, 39.736182798224398 ], [ -104.995728679707, 39.736305964994301 ], [ -104.995808628975993, 39.736437394509103 ], [ -104.995879113349005, 39.736525202103103 ], [ -104.995949657344994, 39.736604773871399 ], [ -104.996299953266004, 39.737092872894401 ], [ -104.996391460001007, 39.737224351038797 ], [ -104.996482118101, 39.7373503352527 ], [ -104.996678387016999, 39.737624672217002 ], [ -104.996860690077995, 39.737863260874697 ], [ -104.996983154442006, 39.738016832657799 ], [ -104.997040098016996, 39.738085032101402 ], [ -104.997064242739, 39.738113950266097 ], [ -104.997162881875994, 39.7382430564017 ], [ -104.997217935622004, 39.738375750458601 ], [ -104.997397195721007, 39.738543291487602 ], [ -104.997464345118999, 39.7386008857505 ], [ -104.997492515610006, 39.738639439683297 ], [ -104.997545442135007, 39.738696973208199 ], [ -104.99758683156, 39.738751711989003 ], [ -104.997636123616005, 39.738820211138297 ], [ -104.997660623314005, 39.738874877832799 ], [ -104.997709777908995, 39.738962592921098 ], [ -104.997761639001993, 39.739044828969902 ], [ -104.997800359541003, 39.7390998999036 ], [ -104.997870986663997, 39.739168489544497 ], [ -104.997906272318005, 39.739206730804803 ], [ -104.997941439517007, 39.739261443098997 ], [ -104.997968545008007, 39.7393246997879 ], [ -104.997996483509993, 39.739395853073098 ], [ -104.998021131051004, 39.739429930847798 ], [ -104.998066848353005, 39.739501159352599 ], [ -104.998116141663999, 39.739569658283003 ], [ -104.998150555383006, 39.739605493461397 ], [ -104.998196528525, 39.739641034998797 ], [ -104.998263657017006, 39.739701717019599 ], [ -104.998313029211005, 39.739759235015498 ], [ -104.998350922998995, 39.739805722824102 ], [ -104.998379016184998, 39.739855257174703 ], [ -104.998410530986007, 39.739923679780503 ], [ -104.998566933180001, 39.740193717891898 ], [ -104.998911720186996, 39.740207919099902 ], [ -104.999066122729005, 39.740214331340297 ], [ -104.999969994775, 39.740208484519897 ], [ -105.000049587936999, 39.740207969136101 ], [ -105.000116937000996, 39.7402075330237 ], [ -105.000145847328, 39.740206879597103 ], [ -105.001569573799998, 39.740174679501401 ], [ -105.001724965050002, 39.740171164176999 ], [ -105.00282160754, 39.7401588464055 ], [ -105.003546923537002, 39.740150697964097 ], [ -105.004125826118994, 39.740149383324201 ], [ -105.004417590418001, 39.740165634759499 ], [ -105.004777404986996, 39.740189683203397 ], [ -105.005234368496005, 39.740209742159799 ], [ -105.005886946987999, 39.740238384861399 ], [ -105.006433308957995, 39.740262363305398 ], [ -105.009346658439, 39.740335011587703 ], [ -105.010866674241001, 39.740372886941202 ], [ -105.014577891667997, 39.740448344217803 ], [ -105.015322817910004, 39.740466436238002 ], [ -105.017385186303002, 39.740515535705597 ], [ -105.017329309291995, 39.740669214387999 ], [ -105.017219991066, 39.740923389338199 ], [ -105.017061721649, 39.741314625844403 ], [ -105.016593525397994, 39.7425593948333 ], [ -105.016491828599996, 39.742867818845397 ], [ -105.016439260919, 39.743013444661301 ], [ -105.016412176873999, 39.743073385924902 ], [ -105.016337402690993, 39.7432161754775 ], [ -105.016261337779994, 39.743389931410697 ], [ -105.016070035360002, 39.743826925518398 ], [ -105.015950316336998, 39.744040906776398 ], [ -105.015844939222006, 39.744237788449503 ], [ -105.015840201659998, 39.744250617097698 ], [ -105.015799640175004, 39.7443604524927 ], [ -105.015750508517002, 39.744523249920199 ], [ -105.015730831422005, 39.744669010931403 ], [ -105.015699507994, 39.744956447971099 ], [ -105.015678449584001, 39.745302263707202 ], [ -105.015630215670001, 39.745849743371302 ], [ -105.015621630878002, 39.746062809119401 ], [ -105.015619656542995, 39.746348651015701 ], [ -105.015618322142004, 39.746541842727098 ], [ -105.015609275621998, 39.746693137712697 ], [ -105.015593074110001, 39.746979264157098 ], [ -105.015575975995006, 39.747266416102001 ], [ -105.015556348439006, 39.747545774843402 ], [ -105.015543437106004, 39.747729543941198 ], [ -105.015475253806997, 39.748461559896 ], [ -105.015443920525001, 39.748750025858797 ], [ -105.015374265885995, 39.749180057535398 ], [ -105.015309203653004, 39.749460148556501 ], [ -105.015267475214998, 39.749580081435099 ], [ -105.015192523652999, 39.749747233154601 ], [ -105.015158304140996, 39.749809889946903 ], [ -105.015139405449005, 39.749842754977699 ], [ -105.015083828962005, 39.749908068952401 ], [ -105.014956766073993, 39.750024904875701 ], [ -105.014781535666998, 39.750164190537497 ], [ -105.014684997700002, 39.750238257465803 ], [ -105.014602805070993, 39.750295225714297 ], [ -105.014398479619004, 39.750398702517998 ], [ -105.013588126917, 39.750835625714501 ], [ -105.013498897744995, 39.7508812402045 ], [ -105.013439161392, 39.7509050140049 ], [ -105.013375834737005, 39.750933577470903 ], [ -105.013301860778995, 39.750959008303802 ], [ -105.013111945329001, 39.751035432736899 ], [ -105.012963839394999, 39.751108941770902 ], [ -105.012773584863993, 39.7512340929472 ], [ -105.012527907027007, 39.751401908393099 ], [ -105.012233681471002, 39.75164638935 ], [ -105.012054584168993, 39.751828892526902 ], [ -105.011677977687, 39.752156074341102 ], [ -105.011607139714002, 39.752241569490202 ], [ -105.011536270752998, 39.752331525730298 ], [ -105.011487839745001, 39.752391377088202 ], [ -105.011394754655996, 39.752479524702501 ], [ -105.011319590056999, 39.752547844255503 ], [ -105.011185462808996, 39.752656067854502 ], [ -105.010824193285998, 39.752950367559201 ], [ -105.010652601988994, 39.753075592424899 ], [ -105.010523000288003, 39.753172167006099 ], [ -105.010269197484007, 39.753355729081001 ], [ -105.010169156738996, 39.753420855656302 ], [ -105.010020131725, 39.753497445495299 ], [ -105.009920148171005, 39.753554336319397 ], [ -105.009763609014996, 39.753688201649403 ], [ -105.009489391760994, 39.753927001933299 ], [ -105.009397712131005, 39.7540068419368 ], [ -105.009356491976007, 39.754052309593199 ], [ -105.009330425743997, 39.75409235043 ], [ -105.009271142033001, 39.754177892099101 ], [ -105.009154611656001, 39.754311923405403 ], [ -105.009069623876002, 39.754385690706599 ], [ -105.009006163066999, 39.754432781585997 ], [ -105.00871932583, 39.754634389922202 ], [ -105.008629930016994, 39.754702647918698 ], [ -105.008578157208007, 39.754731257020303 ], [ -105.008540752827003, 39.754739679737497 ], [ -105.008436662232995, 39.7547478239482 ], [ -105.008344130202005, 39.754756016350697 ], [ -105.008270251520997, 39.754767032005098 ], [ -105.008217839531994, 39.754782702607699 ], [ -105.008186492834994, 39.754792075557297 ], [ -105.007583783117994, 39.755403461593701 ], [ -105.007154438927998, 39.7558906620662 ], [ -105.007023515865001, 39.756047279104997 ], [ -105.006837121199993, 39.7562523919486 ], [ -105.006747400183002, 39.756366286780398 ], [ -105.006645936376003, 39.756506212370901 ], [ -105.006597510383997, 39.756564345905701 ], [ -105.006507808419002, 39.756675495435601 ], [ -105.006440796581998, 39.756752171538302 ], [ -105.006328523326999, 39.756880637247399 ], [ -105.006175183677996, 39.757063239323799 ], [ -105.006115944363998, 39.757141573175701 ], [ -105.006033433656995, 39.757241428422397 ], [ -105.005943770773996, 39.757346744215504 ], [ -105.005869242990002, 39.757449378037997 ], [ -105.005838587403005, 39.757509301815098 ], [ -105.005827392399993, 39.757583719427799 ], [ -105.00581169342, 39.757666353892603 ], [ -105.005796061926006, 39.757739380728601 ], [ -105.005755383196004, 39.757833577897003 ], [ -105.005698539600004, 39.757950354915003 ], [ -105.005653574161002, 39.758021886139097 ], [ -105.005612308606999, 39.758073185744799 ], [ -105.005496716793999, 39.758198295423803 ], [ -105.005157239197999, 39.758547230326002 ], [ -105.005074926834993, 39.7586186041 ], [ -105.004866531912, 39.758789305426802 ], [ -105.004728707582004, 39.758914320553401 ], [ -105.004538012487004, 39.759096763558901 ], [ -105.004422235169002, 39.759247607420697 ], [ -105.004294713361006, 39.759424482079901 ], [ -105.004249757875002, 39.759494296411297 ], [ -105.004186804514006, 39.759594232667801 ], [ -105.004114901042001, 39.7597023669924 ], [ -105.004025229703998, 39.759808024089303 ], [ -105.003917938464994, 39.7598902724719 ], [ -105.003816910734997, 39.759967056635702 ], [ -105.003716759837005, 39.760045560325402 ], [ -105.003586348282994, 39.760127710717498 ], [ -105.003430066700005, 39.760221419422002 ], [ -105.003168867382996, 39.760406040237299 ], [ -105.001893606772001, 39.7597612722439 ], [ -105.001778196670003, 39.759671566884599 ], [ -105.001330647518003, 39.759458287853803 ], [ -105.000825549723004, 39.759210104080402 ], [ -105.000104374849002, 39.758836778656601 ], [ -104.999830776617998, 39.758672274055698 ], [ -104.999547640586997, 39.758473755867001 ], [ -104.998574674099004, 39.757749330974903 ], [ -104.997377530666995, 39.756764447504899 ], [ -104.997019222015993, 39.756469661337803 ], [ -104.996118952421995, 39.755728978181402 ], [ -104.995147916449994, 39.754993550949798 ], [ -104.994701297971005, 39.754658086315999 ], [ -104.994272374385005, 39.754335393058199 ], [ -104.993827678442997, 39.753981059667097 ], [ -104.993418351848007, 39.753654672641503 ], [ -104.992992432934003, 39.753287033383799 ], [ -104.992597448943997, 39.752945606244097 ], [ -104.992143693171002, 39.752616964111098 ], [ -104.991690824996994, 39.752289010152097 ], [ -104.990830758176998, 39.751590399738802 ], [ -104.989975676103001, 39.750942248525199 ], [ -104.989101339941996, 39.750254201211597 ], [ -104.988670733982005, 39.749925645506401 ], [ -104.988226867915003, 39.749587079234402 ], [ -104.987525738607005, 39.749048359740399 ], [ -104.987396921799004, 39.748912594565503 ], [ -104.987398472029994, 39.748213933010199 ], [ -104.987400279880006, 39.747358465167999 ], [ -104.987396865761994, 39.746974097975098 ], [ -104.987400795913004, 39.7466796858671 ], [ -104.987407911700998, 39.746192776409501 ], [ -104.987407765558004, 39.745932462663397 ], [ -104.987407504977, 39.745467357406902 ], [ -104.987407278272997, 39.745063098288703 ], [ -104.987419619209007, 39.744834265643298 ], [ -104.987376177189006, 39.743358154163502 ], [ -104.987386673730995, 39.743059563929201 ], [ -104.987416583392999, 39.742208750728203 ], [ -104.987411415935995, 39.741953560008596 ], [ -104.987406131770996, 39.741692595388997 ], [ -104.987397073859995, 39.741472248198697 ], [ -104.987383821612994, 39.740852789919202 ], [ -104.987388831494997, 39.740107110254101 ], [ -104.987390687512004, 39.740013019694103 ], [ -104.987394648638997, 39.739614721410398 ] ] ] } }
]
}
